{
"type": "FeatureCollection",
"name": "buffer_marino",
"crs": { "type": "name", "properties": { "name": "urn:ogc:def:crs:OGC:1.3:CRS84" } },
"features": [
{ "type": "Feature", "properties": { "ambito": "buffer_marino" }, "geometry": { "type": "Polygon", "coordinates": [ [ [ -4.70966119337925, 36.486826311451075 ], [ -4.709718945992254, 36.485032236470332 ], [ -4.709997338046032, 36.483251690882746 ], [ -4.710493594891085, 36.481502324470412 ], [ -4.711202783092391, 36.47980147676742 ], [ -4.71211785988645, 36.478166005260427 ], [ -4.713229743488903, 36.476612118409903 ], [ -4.714527403536381, 36.475155215142529 ], [ -4.715997970749803, 36.473809732398912 ], [ -4.717626864719501, 36.472589002239879 ], [ -4.719397938537254, 36.471505119919527 ], [ -4.721293638837795, 36.470568824222923 ], [ -4.723295179664371, 36.469789391245776 ], [ -4.723556135431325, 36.469700411223783 ], [ -4.724496493141139, 36.469418595995847 ], [ -4.725972798972924, 36.468441832905867 ], [ -4.727646332699596, 36.467525574113125 ], [ -4.729415627436936, 36.46673538211477 ], [ -4.729575603453477, 36.466671395905557 ], [ -4.732483502301783, 36.465707764214635 ], [ -4.73264847075249, 36.465663774637733 ], [ -4.735552744779177, 36.465060669908475 ], [ -4.736428554686457, 36.464928704745809 ], [ -4.738678651081531, 36.464684524436798 ], [ -4.740947810610407, 36.464626226510333 ], [ -4.742979531723349, 36.464741225725767 ], [ -4.743365136018378, 36.464727084031949 ], [ -4.745550769559871, 36.464820261142222 ], [ -4.747714601538862, 36.465085887953762 ], [ -4.749835831631057, 36.465521410695082 ], [ -4.751894068287388, 36.46612264240558 ], [ -4.753869524385404, 36.466883803117959 ], [ -4.754539813905374, 36.467210701093009 ], [ -4.755454095104, 36.467261253637552 ], [ -4.755580066464679, 36.467275251229857 ], [ -4.756729757526557, 36.467448877290039 ], [ -4.75839222013144, 36.467633838989663 ], [ -4.758602173281941, 36.467664833262376 ], [ -4.759315959443394, 36.467802939203381 ], [ -4.760273520552637, 36.467903222401404 ], [ -4.760501469347449, 36.467934216776086 ], [ -4.762373396010391, 36.468255941469415 ], [ -4.762833828983656, 36.468369122064459 ], [ -4.762910973504656, 36.468384300482626 ], [ -4.764355557186579, 36.46872821127937 ], [ -4.764523539717525, 36.468750470727521 ], [ -4.765290371942044, 36.468886444811588 ], [ -4.76552791591947, 36.468939391357402 ], [ -4.766340531455665, 36.469040635019411 ], [ -4.768862536054118, 36.469605191481747 ], [ -4.769221464702843, 36.469704171931895 ], [ -4.769505368408942, 36.469792940712644 ], [ -4.770171190088255, 36.469889837887763 ], [ -4.770624721926876, 36.469959758000407 ], [ -4.771146606566666, 36.470044742028144 ], [ -4.771674344915997, 36.470138105736055 ], [ -4.772161324239309, 36.470217163466771 ], [ -4.773326069604103, 36.470425123818423 ], [ -4.773902833959557, 36.470544102506828 ], [ -4.775491217295534, 36.470821737592082 ], [ -4.776345037041148, 36.471009700904538 ], [ -4.777755318145928, 36.471368520286866 ], [ -4.779072172786026, 36.471569477828858 ], [ -4.781476467943191, 36.472169174013324 ], [ -4.781760902805864, 36.472254576603994 ], [ -4.78257528393833, 36.472491357113462 ], [ -4.782789264054119, 36.47253827549946 ], [ -4.783472125129466, 36.472713241038939 ], [ -4.784067115519319, 36.472897182583168 ], [ -4.785076968359197, 36.473109896523809 ], [ -4.7853650012473, 36.473190138206675 ], [ -4.785909536745231, 36.473302928683147 ], [ -4.787435821541641, 36.473687386711944 ], [ -4.789706940127916, 36.474196236284847 ], [ -4.79045679031741, 36.474400196049679 ], [ -4.790571721335366, 36.474431738159005 ], [ -4.790676359791944, 36.474460712010178 ], [ -4.791625977279193, 36.47469179535365 ], [ -4.793110339828539, 36.475099437161248 ], [ -4.793149444799693, 36.475111429316506 ], [ -4.793701026693741, 36.475223188735875 ], [ -4.79536489711109, 36.475616361240114 ], [ -4.795848053049339, 36.475747179817645 ], [ -4.79688740835434, 36.475978574435118 ], [ -4.797554037100014, 36.476138503945009 ], [ -4.798513269054236, 36.476329862679421 ], [ -4.799013270756201, 36.476466186502087 ], [ -4.799228566385377, 36.47650188714951 ], [ -4.800606022341049, 36.476838070757481 ], [ -4.800844110870889, 36.47688386645742 ], [ -4.802455080916802, 36.477222554391034 ], [ -4.803004463431095, 36.477329898453718 ], [ -4.804231975073046, 36.477638578682033 ], [ -4.804811773864492, 36.477754076134659 ], [ -4.805750833388395, 36.478007419743442 ], [ -4.806277632102978, 36.478120081657359 ], [ -4.806644303021878, 36.478202939660349 ], [ -4.807125774799865, 36.478287422951318 ], [ -4.808539361501446, 36.478608385635305 ], [ -4.809015866018166, 36.478700800061347 ], [ -4.809552042595428, 36.478810476968938 ], [ -4.810234897682238, 36.478957448401239 ], [ -4.811354028519818, 36.479223796127805 ], [ -4.812143664986262, 36.479429979868065 ], [ -4.812474844922609, 36.479498086089052 ], [ -4.812883523198847, 36.479574916575352 ], [ -4.814090890420724, 36.479836558762095 ], [ -4.815305301947934, 36.480079099968698 ], [ -4.815891179382431, 36.480214073592677 ], [ -4.816826442821222, 36.480447931882125 ], [ -4.81744898975137, 36.480515530340654 ], [ -4.819808111159164, 36.480986960334278 ], [ -4.820535149361096, 36.481202277342319 ], [ -4.821045294759585, 36.481236830091504 ], [ -4.821089776456197, 36.481242379297655 ], [ -4.822271386601137, 36.481257962395723 ], [ -4.824443923994222, 36.481459421027409 ], [ -4.8265816380531, 36.481831560251223 ], [ -4.828114619761673, 36.482228542182341 ], [ -4.82887957716747, 36.4824028392689 ], [ -4.828998546852706, 36.4824226680241 ], [ -4.829087914541012, 36.482439486709858 ], [ -4.829476801588661, 36.482490212200652 ], [ -4.831137704723417, 36.482788199068565 ], [ -4.831930995619949, 36.482860860631952 ], [ -4.83372787070576, 36.483147472908939 ], [ -4.833894356877481, 36.483179810059724 ], [ -4.835487095726254, 36.483359348604431 ], [ -4.837296693632437, 36.483642296167986 ], [ -4.837435557252113, 36.483667979372072 ], [ -4.839157543382737, 36.48390321494589 ], [ -4.840179320175635, 36.484088179812858 ], [ -4.840277349956184, 36.484106112215642 ], [ -4.840488304006095, 36.484145104787324 ], [ -4.840609291012105, 36.484170261230311 ], [ -4.840725773720123, 36.484183116178187 ], [ -4.842690445622696, 36.484548172638654 ], [ -4.843455864564643, 36.484750603087811 ], [ -4.843709143499767, 36.484752225661111 ], [ -4.845898931131691, 36.484941489967163 ], [ -4.848054979146059, 36.485304050888985 ], [ -4.84852587869471, 36.485403031745037 ], [ -4.850343165267704, 36.485852516582831 ], [ -4.852106533336178, 36.48642518678119 ], [ -4.853803204704047, 36.487116892627739 ], [ -4.8542701360775, 36.487327852306485 ], [ -4.855251870373482, 36.487835793386381 ], [ -4.855501931158088, 36.487895984609395 ], [ -4.856616692722547, 36.488190268657945 ], [ -4.856791292954932, 36.488240496605123 ], [ -4.856855941738229, 36.488256042663274 ], [ -4.85688330687707, 36.488260988264038 ], [ -4.85913557700712, 36.488769377392323 ], [ -4.859399332747756, 36.48885379801208 ], [ -4.859403325090215, 36.488854550384474 ], [ -4.860283687713797, 36.489036371959315 ], [ -4.861605583183247, 36.489205272577699 ], [ -4.862966451618407, 36.489330647916546 ], [ -4.8634043800925, 36.489355515620424 ], [ -4.865182194456019, 36.488696682779604 ], [ -4.867228340455475, 36.488124757159682 ], [ -4.869333459159773, 36.487715568752293 ], [ -4.871477754461294, 36.487472964959544 ], [ -4.873641062705878, 36.487399226664074 ], [ -4.875803041922489, 36.487495046839271 ], [ -4.876426376475751, 36.487572075818392 ], [ -4.876662871114203, 36.487571896120002 ], [ -4.877841579912137, 36.487622491134985 ], [ -4.878442118597583, 36.487541270756147 ], [ -4.880598183241079, 36.487420772654872 ], [ -4.881556021177984, 36.487442236363698 ], [ -4.881898484354274, 36.487353643974892 ], [ -4.884055759455398, 36.48698023349602 ], [ -4.886248133251307, 36.486780580035585 ], [ -4.888454200800924, 36.486756632450259 ], [ -4.890258167158653, 36.486881367072087 ], [ -4.891567483343274, 36.486830014296054 ], [ -4.893652688070125, 36.486905831855196 ], [ -4.895720013465018, 36.487138567747408 ], [ -4.897751393310243, 36.487526187750483 ], [ -4.89883893369119, 36.487822656488582 ], [ -4.900275609075309, 36.488123268037562 ], [ -4.900498882969742, 36.488189809947357 ], [ -4.902430495919634, 36.488124069137278 ], [ -4.903371253204616, 36.488108069393604 ], [ -4.904309027073889, 36.488108077474514 ], [ -4.90490567029687, 36.488034844384693 ], [ -4.905664240047212, 36.487952449993166 ], [ -4.905781929053519, 36.487941321649174 ], [ -4.907131328966527, 36.486828164843857 ], [ -4.908722954352432, 36.485739848432935 ], [ -4.910433382769514, 36.484776219823502 ], [ -4.912247684892509, 36.483945687329296 ], [ -4.91415002666419, 36.483255497583173 ], [ -4.916123807325909, 36.482711672425594 ], [ -4.916217788596439, 36.482689677829548 ], [ -4.918358617253065, 36.482279808750434 ], [ -4.920538998760916, 36.482042104798062 ], [ -4.922737759766245, 36.481978873833803 ], [ -4.923262691819867, 36.482005618091527 ], [ -4.923470896818746, 36.481981562265105 ], [ -4.924510223292362, 36.481817226094115 ], [ -4.926678279994873, 36.481649078696819 ], [ -4.927336575051236, 36.481650069620187 ], [ -4.927994112055369, 36.480444700296367 ], [ -4.929304248719441, 36.478642806835339 ], [ -4.929347256207128, 36.478590813241908 ], [ -4.929606415429221, 36.478284380025883 ], [ -4.934114108051955, 36.473070044507317 ], [ -4.936047843758979, 36.471132965319818 ], [ -4.93614884763575, 36.471044978934223 ], [ -4.937997541953996, 36.469609539616265 ], [ -4.938156536279307, 36.469499558959001 ], [ -4.939552566607758, 36.468609253237702 ], [ -4.941031924570258, 36.467811563975481 ], [ -4.941195905745101, 36.467730580397976 ], [ -4.942886880202688, 36.466974689972531 ], [ -4.944652459197705, 36.466339789630602 ], [ -4.944809431609206, 36.466289801132177 ], [ -4.946220501607445, 36.465884072987372 ], [ -4.946356475342994, 36.465849081428011 ], [ -4.949081423559903, 36.465297700487305 ], [ -4.949242388629885, 36.465273706951997 ], [ -4.95186995821316, 36.465011021658583 ], [ -4.95291585533368, 36.46495704792261 ], [ -4.953590436695841, 36.464903452397635 ], [ -4.955563984448462, 36.464888174339052 ], [ -4.955770813049806, 36.464901379807948 ], [ -4.957787011282568, 36.464226562964825 ], [ -4.957861902354533, 36.464208498664057 ], [ -4.958905385487817, 36.463559780269051 ], [ -4.959208355502056, 36.463397812174421 ], [ -4.960896910573883, 36.462579259845036 ], [ -4.962668205591865, 36.461884128191144 ], [ -4.964508449915654, 36.461317828174238 ], [ -4.964949365989239, 36.461199856419263 ], [ -4.967162885305535, 36.460708072256544 ], [ -4.967864736843186, 36.460583104767366 ], [ -4.968433901995464, 36.460503498703304 ], [ -4.969470103438504, 36.459771379586833 ], [ -4.970925060989969, 36.458900900574434 ], [ -4.971232219323751, 36.458732274610206 ], [ -4.971767240979523, 36.458408362682064 ], [ -4.972777225017142, 36.457831499194789 ], [ -4.973591761269901, 36.457393097379125 ], [ -4.974179554679733, 36.457042179564482 ], [ -4.974474993931234, 36.456868799255325 ], [ -4.974703285441103, 36.456737116104357 ], [ -4.975741518955174, 36.455898012796119 ], [ -4.976046511832188, 36.455678050661874 ], [ -4.977657307625507, 36.454620841528516 ], [ -4.978184306205003, 36.45433625695506 ], [ -4.97868772475989, 36.453958106289129 ], [ -4.97914470396147, 36.453653160866914 ], [ -4.980081472302613, 36.453096324790835 ], [ -4.981144996436844, 36.452357105247934 ], [ -4.981542975619599, 36.452098152154356 ], [ -4.984090657390163, 36.450664494866395 ], [ -4.984514498400432, 36.450459806364286 ], [ -4.984770872950715, 36.450334634742163 ], [ -4.985708713374605, 36.449678054140044 ], [ -4.986451190257688, 36.449253935758684 ], [ -4.987563678373122, 36.448428730700194 ], [ -4.987618593853202, 36.448395355231838 ], [ -4.987956949677993, 36.448093707692173 ], [ -4.989586968442777, 36.446901002676256 ], [ -4.990117193374783, 36.44658382438751 ], [ -4.990151270145107, 36.446558890683065 ], [ -4.992233992910609, 36.445209098679442 ], [ -4.992593962688001, 36.445003138165006 ], [ -4.994674138063722, 36.443946850921698 ], [ -4.995076085107215, 36.443766888660782 ], [ -4.997029746518128, 36.442990304424768 ], [ -4.999067769349563, 36.442371267057538 ], [ -5.001170748750779, 36.441915669735103 ], [ -5.003318662773366, 36.441627849473576 ], [ -5.005491062649928, 36.441510545935309 ], [ -5.00766726709143, 36.441564875415523 ], [ -5.009826558771473, 36.441790320253325 ], [ -5.01194838114605, 36.442184733766702 ], [ -5.01401253375437, 36.4427443606642 ], [ -5.015999364160372, 36.443463872740125 ], [ -5.017889954725299, 36.444336419516524 ], [ -5.019666302448991, 36.445353693353823 ], [ -5.02131149018096, 36.446506008415376 ], [ -5.022809847581455, 36.447782392740699 ], [ -5.024147100306716, 36.44917069255758 ], [ -5.025310506001014, 36.450657687847468 ], [ -5.026288975799713, 36.452229218071494 ], [ -5.027073180181638, 36.453870316867494 ], [ -5.027655638154256, 36.455565354442541 ], [ -5.028030788910464, 36.457298186311668 ], [ -5.028195045259588, 36.459052306971735 ], [ -5.028167600922299, 36.460053332905304 ], [ -5.028768676317013, 36.46162407827304 ], [ -5.028588, 36.461626 ], [ -5.028213, 36.461653 ], [ -5.027909, 36.461614 ], [ -5.027529, 36.461529 ], [ -5.027175, 36.461443 ], [ -5.026733, 36.461295 ], [ -5.026597, 36.461199 ], [ -5.026148, 36.460899 ], [ -5.025881, 36.4608 ], [ -5.025541, 36.460694 ], [ -5.024898, 36.460634 ], [ -5.024304, 36.460605 ], [ -5.02359, 36.460704 ], [ -5.02306, 36.460771 ], [ -5.022497, 36.460799 ], [ -5.021879, 36.460999 ], [ -5.021041, 36.461171 ], [ -5.020575, 36.461291 ], [ -5.020105, 36.461369 ], [ -5.018766, 36.461681 ], [ -5.017748, 36.46183 ], [ -5.017084, 36.461886 ], [ -5.016186, 36.461836 ], [ -5.015487, 36.461741 ], [ -5.015143, 36.46168 ], [ -5.01413, 36.461357 ], [ -5.013482, 36.46111 ], [ -5.012937, 36.460881 ], [ -5.012582, 36.460695 ], [ -5.012427, 36.460548 ], [ -5.012472, 36.460419 ], [ -5.012354, 36.460434 ], [ -5.012118, 36.460353 ], [ -5.011813, 36.460215 ], [ -5.011686, 36.459997 ], [ -5.01167, 36.459734 ], [ -5.011405, 36.459654 ], [ -5.011067, 36.459447 ], [ -5.010754, 36.459289 ], [ -5.010422, 36.45918 ], [ -5.009683, 36.459035 ], [ -5.009118, 36.458991 ], [ -5.0087, 36.459022 ], [ -5.008262, 36.459056 ], [ -5.007868, 36.459106 ], [ -5.007116, 36.459252 ], [ -5.006243, 36.459456 ], [ -5.005891, 36.459531 ], [ -5.005489, 36.459711 ], [ -5.005129, 36.459917 ], [ -5.004868, 36.460108 ], [ -5.00469, 36.460252 ], [ -5.004493, 36.460485 ], [ -5.004199, 36.460765 ], [ -5.003883, 36.460924 ], [ -5.003832, 36.460876 ], [ -5.003787, 36.460839 ], [ -5.003732, 36.460839 ], [ -5.003771, 36.4609 ], [ -5.003785, 36.460971 ], [ -5.003733, 36.461065 ], [ -5.003476, 36.461268 ], [ -5.003399, 36.46125 ], [ -5.003418, 36.461324 ], [ -5.003294, 36.461463 ], [ -5.002963, 36.461678 ], [ -5.002592, 36.462042 ], [ -5.00229, 36.462272 ], [ -5.002109, 36.462326 ], [ -5.001974, 36.46233 ], [ -5.001833, 36.462284 ], [ -5.0018, 36.462311 ], [ -5.00186, 36.46235 ], [ -5.001952, 36.462463 ], [ -5.001779, 36.462728 ], [ -5.001618, 36.462873 ], [ -5.001333, 36.463027 ], [ -5.001086, 36.463111 ], [ -5.000842, 36.463146 ], [ -5.000732, 36.4631 ], [ -5.000706, 36.463141 ], [ -5.000823, 36.463259 ], [ -5.000651, 36.463451 ], [ -5.000308, 36.463678 ], [ -4.999962, 36.463828 ], [ -4.999677, 36.463885 ], [ -4.999547, 36.463825 ], [ -4.999473, 36.463863 ], [ -4.999634, 36.463997 ], [ -4.999448, 36.464197 ], [ -4.998686, 36.464667 ], [ -4.997799, 36.465139 ], [ -4.997077, 36.465386 ], [ -4.99601, 36.465907 ], [ -4.99554, 36.466134 ], [ -4.995142, 36.466393 ], [ -4.994634, 36.46677 ], [ -4.994339, 36.467018 ], [ -4.993995, 36.467211 ], [ -4.993356, 36.467548 ], [ -4.992899, 36.467853 ], [ -4.992319, 36.468343 ], [ -4.991908, 36.46864 ], [ -4.991341, 36.468911 ], [ -4.990908, 36.469122 ], [ -4.990603, 36.469342 ], [ -4.990361, 36.469619 ], [ -4.989576, 36.470251 ], [ -4.988646, 36.470842 ], [ -4.987443, 36.471536 ], [ -4.986418, 36.472148 ], [ -4.985151, 36.47283 ], [ -4.984203, 36.473404 ], [ -4.983469, 36.473807 ], [ -4.982809, 36.474313 ], [ -4.982268, 36.474633 ], [ -4.981785, 36.475104 ], [ -4.981104, 36.475551 ], [ -4.980445, 36.476004 ], [ -4.979749, 36.476457 ], [ -4.978711, 36.477069 ], [ -4.977853, 36.477534 ], [ -4.977022, 36.477959 ], [ -4.976546, 36.478092 ], [ -4.976033, 36.478241 ], [ -4.975628, 36.478288 ], [ -4.97515, 36.478357 ], [ -4.974817, 36.478326 ], [ -4.97441, 36.478305 ], [ -4.974017, 36.478276 ], [ -4.97358, 36.478249 ], [ -4.97302, 36.478226 ], [ -4.972669, 36.478184 ], [ -4.971967, 36.478309 ], [ -4.971526, 36.478427 ], [ -4.971223, 36.478589 ], [ -4.970949, 36.478786 ], [ -4.970653, 36.479102 ], [ -4.970274, 36.479517 ], [ -4.969896, 36.479878 ], [ -4.969227, 36.480456 ], [ -4.968855, 36.480694 ], [ -4.968782, 36.48063 ], [ -4.968538, 36.480773 ], [ -4.968113, 36.481017 ], [ -4.967799, 36.481189 ], [ -4.96763, 36.481255 ], [ -4.967441, 36.481294 ], [ -4.96724, 36.481277 ], [ -4.967154, 36.481126 ], [ -4.967085, 36.480982 ], [ -4.967105, 36.480931 ], [ -4.967129, 36.480849 ], [ -4.967069, 36.480798 ], [ -4.96699, 36.480793 ], [ -4.966933, 36.480844 ], [ -4.966899, 36.480901 ], [ -4.966971, 36.48097 ], [ -4.967001, 36.481077 ], [ -4.967058, 36.481163 ], [ -4.967187, 36.481331 ], [ -4.96721, 36.481409 ], [ -4.967182, 36.481501 ], [ -4.967008, 36.481646 ], [ -4.966837, 36.481745 ], [ -4.966543, 36.481872 ], [ -4.966203, 36.48193 ], [ -4.965851, 36.481946 ], [ -4.965573, 36.481906 ], [ -4.965372, 36.481857 ], [ -4.965206, 36.481629 ], [ -4.965093, 36.481412 ], [ -4.965216, 36.481357 ], [ -4.96529, 36.481337 ], [ -4.965317, 36.48129 ], [ -4.965312, 36.48123 ], [ -4.965262, 36.481209 ], [ -4.964289, 36.481583 ], [ -4.96424, 36.481632 ], [ -4.964228, 36.481677 ], [ -4.964247, 36.481722 ], [ -4.964289, 36.481733 ], [ -4.964335, 36.481734 ], [ -4.964379, 36.481718 ], [ -4.964415, 36.481681 ], [ -4.96446, 36.481618 ], [ -4.964989, 36.481432 ], [ -4.965102, 36.481632 ], [ -4.965196, 36.481897 ], [ -4.965211, 36.482006 ], [ -4.965218, 36.482125 ], [ -4.965212, 36.482263 ], [ -4.965163, 36.482439 ], [ -4.965038, 36.482644 ], [ -4.964849, 36.482787 ], [ -4.964636, 36.48286 ], [ -4.964498, 36.482867 ], [ -4.964363, 36.482844 ], [ -4.964205, 36.482558 ], [ -4.964227, 36.482515 ], [ -4.96423, 36.482468 ], [ -4.964198, 36.482424 ], [ -4.964162, 36.482391 ], [ -4.964115, 36.482385 ], [ -4.964075, 36.482391 ], [ -4.964037, 36.482438 ], [ -4.964032, 36.482487 ], [ -4.964054, 36.482535 ], [ -4.964104, 36.482568 ], [ -4.964155, 36.482577 ], [ -4.964309, 36.48285 ], [ -4.964251, 36.482936 ], [ -4.964155, 36.482992 ], [ -4.963923, 36.483077 ], [ -4.963789, 36.483094 ], [ -4.963635, 36.483101 ], [ -4.963479, 36.483076 ], [ -4.963334, 36.483043 ], [ -4.963206, 36.482995 ], [ -4.963044, 36.482913 ], [ -4.962928, 36.482821 ], [ -4.962819, 36.482698 ], [ -4.962761, 36.482618 ], [ -4.962719, 36.482517 ], [ -4.962686, 36.482354 ], [ -4.963273, 36.482158 ], [ -4.963267, 36.482102 ], [ -4.963195, 36.482071 ], [ -4.963076, 36.482081 ], [ -4.962517, 36.482261 ], [ -4.962431, 36.482256 ], [ -4.962225, 36.482369 ], [ -4.961795, 36.482591 ], [ -4.961729, 36.482639 ], [ -4.961722, 36.482674 ], [ -4.96173, 36.482701 ], [ -4.961803, 36.482699 ], [ -4.961892, 36.48267 ], [ -4.961981, 36.482632 ], [ -4.962284, 36.482514 ], [ -4.962385, 36.482606 ], [ -4.962474, 36.48273 ], [ -4.962521, 36.482838 ], [ -4.962542, 36.482994 ], [ -4.962522, 36.483127 ], [ -4.962448, 36.483278 ], [ -4.962333, 36.483429 ], [ -4.962176, 36.483597 ], [ -4.962015, 36.48371 ], [ -4.961765, 36.483829 ], [ -4.961476, 36.483926 ], [ -4.96117, 36.48396 ], [ -4.961044, 36.48396 ], [ -4.960847, 36.483945 ], [ -4.960577, 36.483844 ], [ -4.960416, 36.483726 ], [ -4.960287, 36.48357 ], [ -4.96022, 36.483395 ], [ -4.960571, 36.483263 ], [ -4.960656, 36.483247 ], [ -4.960689, 36.48322 ], [ -4.960721, 36.483171 ], [ -4.960689, 36.483131 ], [ -4.96063, 36.483124 ], [ -4.960529, 36.483143 ], [ -4.959279, 36.483573 ], [ -4.959193, 36.483621 ], [ -4.959148, 36.483664 ], [ -4.959126, 36.483733 ], [ -4.959157, 36.483782 ], [ -4.959197, 36.483803 ], [ -4.959278, 36.483789 ], [ -4.95933, 36.483733 ], [ -4.959346, 36.483671 ], [ -4.959857, 36.483503 ], [ -4.959919, 36.483636 ], [ -4.95998, 36.48385 ], [ -4.959997, 36.484032 ], [ -4.959989, 36.484205 ], [ -4.959931, 36.484355 ], [ -4.95983, 36.484534 ], [ -4.959752, 36.484629 ], [ -4.959641, 36.484746 ], [ -4.959415, 36.484901 ], [ -4.959122, 36.485017 ], [ -4.958809, 36.48509 ], [ -4.958457, 36.485102 ], [ -4.958191, 36.485074 ], [ -4.957914, 36.485012 ], [ -4.957587, 36.484127 ], [ -4.957708, 36.484092 ], [ -4.957759, 36.484121 ], [ -4.957829, 36.484148 ], [ -4.957889, 36.48415 ], [ -4.957932, 36.484112 ], [ -4.957941, 36.484028 ], [ -4.957885, 36.483985 ], [ -4.95781, 36.483976 ], [ -4.95713, 36.484142 ], [ -4.957112, 36.484219 ], [ -4.957135, 36.484271 ], [ -4.957174, 36.484292 ], [ -4.957237, 36.484302 ], [ -4.957305, 36.484275 ], [ -4.957331, 36.484228 ], [ -4.957353, 36.484167 ], [ -4.957476, 36.484147 ], [ -4.957695, 36.484729 ], [ -4.957529, 36.484902 ], [ -4.957313, 36.485085 ], [ -4.957136, 36.485147 ], [ -4.956979, 36.485191 ], [ -4.956741, 36.485216 ], [ -4.956521, 36.485223 ], [ -4.956264, 36.485188 ], [ -4.956067, 36.485105 ], [ -4.955906, 36.484996 ], [ -4.955761, 36.484848 ], [ -4.955703, 36.484709 ], [ -4.955712, 36.484592 ], [ -4.955767, 36.484572 ], [ -4.956002, 36.484577 ], [ -4.956067, 36.484495 ], [ -4.95602, 36.484414 ], [ -4.955884, 36.484401 ], [ -4.955554, 36.48448 ], [ -4.955223, 36.484522 ], [ -4.954858, 36.484536 ], [ -4.954459, 36.484497 ], [ -4.954223, 36.484443 ], [ -4.953886, 36.484323 ], [ -4.95346, 36.484162 ], [ -4.953345, 36.484169 ], [ -4.953015, 36.484301 ], [ -4.952947, 36.484266 ], [ -4.952798, 36.484462 ], [ -4.952871, 36.484574 ], [ -4.953351, 36.484368 ], [ -4.95441, 36.485959 ], [ -4.953547, 36.486493 ], [ -4.952908, 36.485826 ], [ -4.952973, 36.485771 ], [ -4.952925, 36.485722 ], [ -4.952698, 36.485861 ], [ -4.952747, 36.485923 ], [ -4.952819, 36.485864 ], [ -4.953461, 36.486529 ], [ -4.952868, 36.486912 ], [ -4.952077, 36.486083 ], [ -4.952121, 36.486055 ], [ -4.95172, 36.485647 ], [ -4.951797, 36.485592 ], [ -4.95174, 36.485539 ], [ -4.951476, 36.485718 ], [ -4.951533, 36.485768 ], [ -4.95161, 36.485721 ], [ -4.952936, 36.487089 ], [ -4.952343, 36.487464 ], [ -4.951265, 36.486343 ], [ -4.951323, 36.486301 ], [ -4.951294, 36.486272 ], [ -4.951142, 36.486368 ], [ -4.951173, 36.486398 ], [ -4.951226, 36.486356 ], [ -4.952352, 36.487533 ], [ -4.951941, 36.487789 ], [ -4.950812, 36.486623 ], [ -4.950873, 36.486581 ], [ -4.950843, 36.486555 ], [ -4.950703, 36.486653 ], [ -4.950729, 36.486686 ], [ -4.950784, 36.486639 ], [ -4.951916, 36.487813 ], [ -4.951494, 36.48807 ], [ -4.950372, 36.4869 ], [ -4.950433, 36.486858 ], [ -4.9504, 36.486833 ], [ -4.950256, 36.486931 ], [ -4.950281, 36.486961 ], [ -4.950333, 36.486917 ], [ -4.951469, 36.488097 ], [ -4.951195, 36.488265 ], [ -4.950289, 36.487329 ], [ -4.950355, 36.487292 ], [ -4.950325, 36.487264 ], [ -4.95018, 36.487362 ], [ -4.950208, 36.487395 ], [ -4.95026, 36.487352 ], [ -4.951163, 36.488288 ], [ -4.950887, 36.48846 ], [ -4.949992, 36.487523 ], [ -4.950046, 36.487487 ], [ -4.950019, 36.487453 ], [ -4.949871, 36.487557 ], [ -4.949898, 36.48759 ], [ -4.949959, 36.487547 ], [ -4.950848, 36.488483 ], [ -4.950577, 36.488649 ], [ -4.949751, 36.487801 ], [ -4.949811, 36.487759 ], [ -4.949784, 36.487724 ], [ -4.949641, 36.487826 ], [ -4.949656, 36.487862 ], [ -4.949714, 36.487816 ], [ -4.950402, 36.488525 ], [ -4.950126, 36.488702 ], [ -4.949644, 36.488198 ], [ -4.94966, 36.48812 ], [ -4.949638, 36.488118 ], [ -4.949615, 36.488238 ], [ -4.949534, 36.488224 ], [ -4.949568, 36.488034 ], [ -4.949537, 36.488037 ], [ -4.949503, 36.488183 ], [ -4.94945, 36.488175 ], [ -4.949482, 36.488026 ], [ -4.949454, 36.488021 ], [ -4.949441, 36.488095 ], [ -4.94924, 36.48807 ], [ -4.949338, 36.487531 ], [ -4.949464, 36.487379 ], [ -4.949509, 36.487396 ], [ -4.949574, 36.487323 ], [ -4.949461, 36.487262 ], [ -4.95086, 36.485643 ], [ -4.950826, 36.485617 ], [ -4.951434, 36.484913 ], [ -4.951502, 36.484948 ], [ -4.951697, 36.484728 ], [ -4.951629, 36.484693 ], [ -4.951868, 36.484428 ], [ -4.951823, 36.484402 ], [ -4.952571, 36.483533 ], [ -4.952626, 36.483478 ], [ -4.952691, 36.483432 ], [ -4.952724, 36.483405 ], [ -4.952801, 36.483358 ], [ -4.952867, 36.483321 ], [ -4.952911, 36.483302 ], [ -4.952989, 36.483274 ], [ -4.953044, 36.483264 ], [ -4.9531, 36.483245 ], [ -4.953166, 36.483226 ], [ -4.953211, 36.483216 ], [ -4.9533, 36.483206 ], [ -4.954581, 36.483122 ], [ -4.954616, 36.483132 ], [ -4.954695, 36.48318 ], [ -4.954751, 36.483209 ], [ -4.954806, 36.483199 ], [ -4.95484, 36.48319 ], [ -4.954884, 36.483171 ], [ -4.954917, 36.483143 ], [ -4.954938, 36.483116 ], [ -4.954948, 36.483071 ], [ -4.954959, 36.483034 ], [ -4.954946, 36.482999 ], [ -4.954923, 36.482954 ], [ -4.954889, 36.482918 ], [ -4.954791, 36.482901 ], [ -4.95467, 36.482915 ], [ -4.954533, 36.482934 ], [ -4.953293, 36.482998 ], [ -4.953132, 36.483022 ], [ -4.952996, 36.483057 ], [ -4.952839, 36.483107 ], [ -4.952675, 36.483188 ], [ -4.952516, 36.483298 ], [ -4.952415, 36.483386 ], [ -4.94797, 36.488553 ], [ -4.947908, 36.488601 ], [ -4.947865, 36.488653 ], [ -4.947841, 36.488705 ], [ -4.947844, 36.488754 ], [ -4.947873, 36.48881 ], [ -4.947911, 36.488843 ], [ -4.947966, 36.488868 ], [ -4.948023, 36.488874 ], [ -4.948073, 36.48887 ], [ -4.94815, 36.488842 ], [ -4.948171, 36.488806 ], [ -4.948193, 36.488761 ], [ -4.948203, 36.488715 ], [ -4.948201, 36.488661 ], [ -4.948193, 36.488628 ], [ -4.948294, 36.488635 ], [ -4.948425, 36.488658 ], [ -4.94854, 36.488733 ], [ -4.948643, 36.488869 ], [ -4.948682, 36.488993 ], [ -4.94866, 36.4892 ], [ -4.948621, 36.489427 ], [ -4.948526, 36.48966 ], [ -4.94828, 36.490004 ], [ -4.947875, 36.490498 ], [ -4.947008, 36.491255 ], [ -4.946303, 36.491915 ], [ -4.945486, 36.492413 ], [ -4.945262, 36.492556 ], [ -4.945201, 36.492528 ], [ -4.945147, 36.492527 ], [ -4.945109, 36.492565 ], [ -4.945117, 36.492622 ], [ -4.945355, 36.492939 ], [ -4.945118, 36.49319 ], [ -4.944392, 36.493694 ], [ -4.943756, 36.494388 ], [ -4.943297, 36.494871 ], [ -4.942368, 36.495536 ], [ -4.941597, 36.495971 ], [ -4.941108, 36.49639 ], [ -4.940128, 36.497139 ], [ -4.939095, 36.497733 ], [ -4.938124, 36.498191 ], [ -4.938047, 36.498237 ], [ -4.937485, 36.498543 ], [ -4.936945, 36.498805 ], [ -4.936575, 36.498984 ], [ -4.936075, 36.499278 ], [ -4.935559, 36.49958 ], [ -4.935084, 36.499757 ], [ -4.934799, 36.499805 ], [ -4.934446, 36.499873 ], [ -4.934134, 36.499927 ], [ -4.93393, 36.499994 ], [ -4.933582, 36.500049 ], [ -4.932757, 36.500107 ], [ -4.93253, 36.500084 ], [ -4.931556, 36.500016 ], [ -4.931073, 36.500035 ], [ -4.930255, 36.500064 ], [ -4.929615, 36.500086 ], [ -4.929114, 36.499968 ], [ -4.928484, 36.499739 ], [ -4.928124, 36.499701 ], [ -4.927726, 36.499653 ], [ -4.92735, 36.499728 ], [ -4.927071, 36.499777 ], [ -4.926538, 36.499823 ], [ -4.92609, 36.499888 ], [ -4.925637, 36.500095 ], [ -4.925208, 36.500268 ], [ -4.92501, 36.5003 ], [ -4.924508, 36.500535 ], [ -4.923925, 36.500733 ], [ -4.923622, 36.500807 ], [ -4.923354, 36.500851 ], [ -4.92305, 36.500851 ], [ -4.922705, 36.500774 ], [ -4.922431, 36.500399 ], [ -4.922404, 36.500261 ], [ -4.922433, 36.500183 ], [ -4.922483, 36.500124 ], [ -4.922482, 36.500052 ], [ -4.922432, 36.500001 ], [ -4.922338, 36.500023 ], [ -4.922275, 36.500129 ], [ -4.922276, 36.500302 ], [ -4.922346, 36.50048 ], [ -4.921963, 36.500682 ], [ -4.921991, 36.500728 ], [ -4.92241, 36.500511 ], [ -4.922612, 36.500783 ], [ -4.922579, 36.500991 ], [ -4.922516, 36.501162 ], [ -4.922322, 36.501467 ], [ -4.921997, 36.501774 ], [ -4.921516, 36.502049 ], [ -4.921196, 36.502119 ], [ -4.920434, 36.502281 ], [ -4.919854, 36.502384 ], [ -4.919625, 36.502469 ], [ -4.91914, 36.502788 ], [ -4.918678, 36.502986 ], [ -4.918226, 36.503082 ], [ -4.917971, 36.503156 ], [ -4.917762, 36.503225 ], [ -4.917653, 36.503282 ], [ -4.917482, 36.503494 ], [ -4.917312, 36.503638 ], [ -4.917036, 36.503796 ], [ -4.916782, 36.503902 ], [ -4.916443, 36.504068 ], [ -4.915838, 36.504307 ], [ -4.915346, 36.504408 ], [ -4.914832, 36.504632 ], [ -4.914194, 36.504905 ], [ -4.913835, 36.505011 ], [ -4.913382, 36.505195 ], [ -4.913083, 36.505304 ], [ -4.912179, 36.505565 ], [ -4.911067, 36.505649 ], [ -4.910565, 36.505666 ], [ -4.909974, 36.505692 ], [ -4.908261, 36.505854 ], [ -4.907373, 36.505963 ], [ -4.906656, 36.506036 ], [ -4.905967, 36.506102 ], [ -4.905308, 36.506145 ], [ -4.904746, 36.506132 ], [ -4.903371, 36.506132 ], [ -4.901344, 36.506201 ], [ -4.901088, 36.50625 ], [ -4.900932, 36.506398 ], [ -4.900443, 36.506574 ], [ -4.899794, 36.506682 ], [ -4.899009, 36.506812 ], [ -4.898498, 36.506892 ], [ -4.89796, 36.50692 ], [ -4.897091, 36.506966 ], [ -4.896319, 36.506993 ], [ -4.894736, 36.506979 ], [ -4.894121, 36.506866 ], [ -4.893594, 36.506715 ], [ -4.893134, 36.506492 ], [ -4.893139, 36.505956 ], [ -4.893501, 36.505457 ], [ -4.893602, 36.505323 ], [ -4.893512, 36.505308 ], [ -4.893061, 36.50592 ], [ -4.893052, 36.506622 ], [ -4.892652, 36.506716 ], [ -4.891884, 36.506683 ], [ -4.891823, 36.506613 ], [ -4.891785, 36.506517 ], [ -4.89165, 36.506483 ], [ -4.891558, 36.506523 ], [ -4.891547, 36.506615 ], [ -4.891579, 36.506685 ], [ -4.891618, 36.506757 ], [ -4.891541, 36.506803 ], [ -4.891315, 36.506829 ], [ -4.890994, 36.506764 ], [ -4.890707, 36.506653 ], [ -4.89053, 36.506429 ], [ -4.890513, 36.506238 ], [ -4.890525, 36.506102 ], [ -4.89078, 36.506125 ], [ -4.890831, 36.506078 ], [ -4.890788, 36.506004 ], [ -4.890223, 36.505683 ], [ -4.889726, 36.50567 ], [ -4.889798, 36.506337 ], [ -4.888245, 36.506419 ], [ -4.888245, 36.506245 ], [ -4.888115, 36.506228 ], [ -4.888266, 36.505588 ], [ -4.888334, 36.505392 ], [ -4.88847, 36.505266 ], [ -4.888659, 36.505247 ], [ -4.888747, 36.50521 ], [ -4.890276, 36.505094 ], [ -4.890292, 36.505128 ], [ -4.891021, 36.505066 ], [ -4.891024, 36.505258 ], [ -4.891243, 36.50525 ], [ -4.89124, 36.505042 ], [ -4.891418, 36.505027 ], [ -4.891586, 36.505035 ], [ -4.89168, 36.50502 ], [ -4.89169, 36.504916 ], [ -4.891607, 36.504854 ], [ -4.888238, 36.505114 ], [ -4.887651, 36.504769 ], [ -4.887605, 36.504834 ], [ -4.888126, 36.505185 ], [ -4.887826, 36.505969 ], [ -4.887374, 36.5062 ], [ -4.886667, 36.506378 ], [ -4.886049, 36.506427 ], [ -4.88469, 36.506442 ], [ -4.884112, 36.506346 ], [ -4.88359, 36.506493 ], [ -4.882975, 36.506706 ], [ -4.882536, 36.506776 ], [ -4.882172, 36.506857 ], [ -4.88199, 36.506876 ], [ -4.881481, 36.506816 ], [ -4.880942, 36.506672 ], [ -4.880728, 36.506527 ], [ -4.880647, 36.506316 ], [ -4.880708, 36.506095 ], [ -4.881009, 36.505603 ], [ -4.88106, 36.505441 ], [ -4.880983, 36.505461 ], [ -4.88049, 36.506315 ], [ -4.880686, 36.506906 ], [ -4.880746, 36.50723 ], [ -4.880645, 36.507282 ], [ -4.879865, 36.507491 ], [ -4.878959, 36.507645 ], [ -4.878587, 36.50762 ], [ -4.878089, 36.507563 ], [ -4.877726, 36.507493 ], [ -4.87753, 36.507454 ], [ -4.877318, 36.507359 ], [ -4.877088, 36.50723 ], [ -4.877009, 36.507144 ], [ -4.877276, 36.506834 ], [ -4.877307, 36.506753 ], [ -4.877229, 36.506777 ], [ -4.876809, 36.507255 ], [ -4.876595, 36.507218 ], [ -4.876266, 36.507062 ], [ -4.87596, 36.506831 ], [ -4.875965, 36.506735 ], [ -4.875796, 36.506736 ], [ -4.875788, 36.506873 ], [ -4.875806, 36.506876 ], [ -4.875814, 36.507758 ], [ -4.874749, 36.507764 ], [ -4.874759, 36.506838 ], [ -4.874574, 36.506848 ], [ -4.874578, 36.507935 ], [ -4.873378, 36.507955 ], [ -4.873365, 36.507406 ], [ -4.872619, 36.507364 ], [ -4.872683, 36.506748 ], [ -4.874055, 36.50591 ], [ -4.874605, 36.505914 ], [ -4.874605, 36.505778 ], [ -4.876357, 36.505762 ], [ -4.876337, 36.50617 ], [ -4.876425, 36.506166 ], [ -4.876444, 36.505844 ], [ -4.876726, 36.505821 ], [ -4.87687, 36.505777 ], [ -4.877018, 36.505802 ], [ -4.877116, 36.505774 ], [ -4.877122, 36.505704 ], [ -4.877064, 36.505629 ], [ -4.876684, 36.505596 ], [ -4.87404, 36.505598 ], [ -4.873779, 36.505647 ], [ -4.8735, 36.505423 ], [ -4.873459, 36.505462 ], [ -4.873717, 36.505725 ], [ -4.872645, 36.506433 ], [ -4.872469, 36.50661 ], [ -4.872422, 36.506749 ], [ -4.872401, 36.50699 ], [ -4.871983, 36.507095 ], [ -4.870742, 36.507156 ], [ -4.870222, 36.507256 ], [ -4.869347, 36.507225 ], [ -4.86775, 36.507351 ], [ -4.866582, 36.507412 ], [ -4.865189, 36.507464 ], [ -4.863242, 36.507415 ], [ -4.860917, 36.507283 ], [ -4.858594, 36.507069 ], [ -4.856559, 36.506809 ], [ -4.856128, 36.506763 ], [ -4.855063, 36.506572 ], [ -4.854329, 36.506407 ], [ -4.853411, 36.506234 ], [ -4.853063, 36.506149 ], [ -4.852671, 36.506028 ], [ -4.852288, 36.505954 ], [ -4.852007, 36.50585 ], [ -4.851592, 36.505775 ], [ -4.851169, 36.505702 ], [ -4.850536, 36.505543 ], [ -4.849854, 36.505379 ], [ -4.849124, 36.505169 ], [ -4.847994, 36.504897 ], [ -4.847287, 36.504711 ], [ -4.846392, 36.504468 ], [ -4.845685, 36.504194 ], [ -4.844919, 36.503949 ], [ -4.844633, 36.503808 ], [ -4.843913, 36.503377 ], [ -4.843369, 36.503057 ], [ -4.842902, 36.502846 ], [ -4.842431, 36.502747 ], [ -4.841544, 36.502848 ], [ -4.841004, 36.50282 ], [ -4.840333, 36.502729 ], [ -4.8399, 36.502644 ], [ -4.839527, 36.502556 ], [ -4.839222, 36.502456 ], [ -4.838487, 36.502351 ], [ -4.838133, 36.50227 ], [ -4.837437, 36.502136 ], [ -4.836707, 36.501913 ], [ -4.836203, 36.501876 ], [ -4.835507, 36.501715 ], [ -4.835296, 36.501676 ], [ -4.834274, 36.501491 ], [ -4.833849, 36.501488 ], [ -4.833525, 36.501439 ], [ -4.833053, 36.501338 ], [ -4.831243, 36.501055 ], [ -4.830784, 36.501023 ], [ -4.830338, 36.500982 ], [ -4.829269, 36.50082 ], [ -4.828507, 36.500672 ], [ -4.827785, 36.50063 ], [ -4.827031, 36.50052 ], [ -4.826544, 36.500428 ], [ -4.825917, 36.500284 ], [ -4.824767, 36.500134 ], [ -4.824486, 36.500075 ], [ -4.824036, 36.5 ], [ -4.823568, 36.499924 ], [ -4.823283, 36.499856 ], [ -4.821703, 36.499496 ], [ -4.821388, 36.499484 ], [ -4.821121, 36.499366 ], [ -4.820814, 36.499244 ], [ -4.820094, 36.499263 ], [ -4.819573, 36.499213 ], [ -4.818696, 36.499192 ], [ -4.818126, 36.499111 ], [ -4.817637, 36.49905 ], [ -4.817198, 36.499045 ], [ -4.816431, 36.498937 ], [ -4.816033, 36.498853 ], [ -4.815196, 36.498727 ], [ -4.814634, 36.498587 ], [ -4.814, 36.498474 ], [ -4.813274, 36.498222 ], [ -4.813024, 36.498228 ], [ -4.81252, 36.498204 ], [ -4.812167, 36.498142 ], [ -4.811605, 36.498059 ], [ -4.811179, 36.497947 ], [ -4.810901, 36.497896 ], [ -4.810765, 36.497857 ], [ -4.81043, 36.497726 ], [ -4.809767, 36.497547 ], [ -4.809181, 36.497412 ], [ -4.808497, 36.497296 ], [ -4.807822, 36.49713 ], [ -4.807189, 36.497011 ], [ -4.805949, 36.496756 ], [ -4.804486, 36.496374 ], [ -4.803803, 36.496227 ], [ -4.802978, 36.496067 ], [ -4.802386, 36.495901 ], [ -4.801155, 36.495685 ], [ -4.800563, 36.495544 ], [ -4.799726, 36.495365 ], [ -4.799155, 36.495237 ], [ -4.798597, 36.495066 ], [ -4.798294, 36.495016 ], [ -4.797755, 36.494849 ], [ -4.797018, 36.494705 ], [ -4.79522, 36.494327 ], [ -4.794613, 36.494221 ], [ -4.793749, 36.493975 ], [ -4.793358, 36.493925 ], [ -4.792821, 36.493807 ], [ -4.792261, 36.493633 ], [ -4.791903, 36.493599 ], [ -4.790955, 36.493355 ], [ -4.789329, 36.492993 ], [ -4.788269, 36.492706 ], [ -4.787198, 36.492489 ], [ -4.786063, 36.492223 ], [ -4.785411, 36.492019 ], [ -4.785186, 36.49195 ], [ -4.783834, 36.491621 ], [ -4.783332, 36.491482 ], [ -4.782582, 36.491278 ], [ -4.781799, 36.491139 ], [ -4.781502, 36.491089 ], [ -4.780851, 36.49091 ], [ -4.779263, 36.49051 ], [ -4.77889, 36.490449 ], [ -4.778616, 36.490363 ], [ -4.778104, 36.490272 ], [ -4.777529, 36.49012 ], [ -4.77715, 36.49005 ], [ -4.776722, 36.489894 ], [ -4.776039, 36.489719 ], [ -4.775766, 36.489669 ], [ -4.774247, 36.489255 ], [ -4.774091, 36.489182 ], [ -4.773698, 36.489064 ], [ -4.773018, 36.488992 ], [ -4.771987, 36.4888 ], [ -4.771666, 36.488745 ], [ -4.77107, 36.488616 ], [ -4.770475, 36.4884 ], [ -4.769621, 36.488212 ], [ -4.769233, 36.488195 ], [ -4.768508, 36.488025 ], [ -4.767343, 36.487817 ], [ -4.767049, 36.487774 ], [ -4.766735, 36.487714 ], [ -4.766213, 36.487629 ], [ -4.765196, 36.487481 ], [ -4.764938, 36.487449 ], [ -4.764561, 36.487404 ], [ -4.764144, 36.487324 ], [ -4.763264, 36.487147 ], [ -4.762503, 36.486975 ], [ -4.762009, 36.486762 ], [ -4.76165, 36.486663 ], [ -4.76148, 36.48665 ], [ -4.76101, 36.486638 ], [ -4.760908, 36.486601 ], [ -4.760679, 36.486545 ], [ -4.760504, 36.486492 ], [ -4.759737, 36.486356 ], [ -4.759384, 36.486386 ], [ -4.759088, 36.486342 ], [ -4.758742, 36.486292 ], [ -4.758339, 36.486187 ], [ -4.75809, 36.486068 ], [ -4.757628, 36.485897 ], [ -4.757274, 36.485845 ], [ -4.757074, 36.485788 ], [ -4.756796, 36.485709 ], [ -4.756568, 36.485678 ], [ -4.756167, 36.485673 ], [ -4.755768, 36.485634 ], [ -4.755266, 36.485619 ], [ -4.75487, 36.485522 ], [ -4.754589, 36.485396 ], [ -4.754379, 36.485365 ], [ -4.754169, 36.48536 ], [ -4.753994, 36.485336 ], [ -4.753453, 36.485368 ], [ -4.753133, 36.485325 ], [ -4.752818, 36.485262 ], [ -4.752538, 36.485132 ], [ -4.752412, 36.485118 ], [ -4.752156, 36.485118 ], [ -4.751344, 36.485078 ], [ -4.751091, 36.485064 ], [ -4.750956, 36.485032 ], [ -4.750495, 36.48501 ], [ -4.750175, 36.485047 ], [ -4.74971, 36.484991 ], [ -4.74918, 36.484942 ], [ -4.748667, 36.484951 ], [ -4.748312, 36.484981 ], [ -4.747841, 36.484959 ], [ -4.74706, 36.484954 ], [ -4.746323, 36.484853 ], [ -4.74596, 36.484863 ], [ -4.745656, 36.484847 ], [ -4.745383, 36.48472 ], [ -4.745197, 36.484712 ], [ -4.744981, 36.484667 ], [ -4.74442, 36.484436 ], [ -4.743627, 36.484192 ], [ -4.743473, 36.48414 ], [ -4.743378, 36.483036 ], [ -4.743329, 36.482777 ], [ -4.743283, 36.482752 ], [ -4.743242, 36.482792 ], [ -4.743237, 36.482872 ], [ -4.743319, 36.483946 ], [ -4.743119, 36.48408 ], [ -4.742882, 36.484167 ], [ -4.742442, 36.484241 ], [ -4.741686, 36.48429 ], [ -4.741477, 36.484284 ], [ -4.740994, 36.484149 ], [ -4.740769, 36.484074 ], [ -4.740537, 36.483903 ], [ -4.740487, 36.483784 ], [ -4.740493, 36.483603 ], [ -4.740542, 36.483603 ], [ -4.740626, 36.48359 ], [ -4.740684, 36.483616 ], [ -4.740747, 36.483612 ], [ -4.740785, 36.48357 ], [ -4.740798, 36.48351 ], [ -4.740708, 36.48345 ], [ -4.740627, 36.483475 ], [ -4.740301, 36.483391 ], [ -4.740082, 36.483304 ], [ -4.73993, 36.483229 ], [ -4.739831, 36.483237 ], [ -4.739792, 36.483281 ], [ -4.739763, 36.483355 ], [ -4.739704, 36.483365 ], [ -4.73958, 36.483406 ], [ -4.739614, 36.483532 ], [ -4.739764, 36.483505 ], [ -4.740092, 36.484679 ], [ -4.739934, 36.484706 ], [ -4.739953, 36.48477 ], [ -4.739974, 36.484766 ], [ -4.740091, 36.485168 ], [ -4.740107, 36.485178 ], [ -4.740138, 36.485174 ], [ -4.740226, 36.485134 ], [ -4.740414, 36.485066 ], [ -4.740643, 36.485009 ], [ -4.740834, 36.484975 ], [ -4.740884, 36.48498 ], [ -4.740922, 36.485008 ], [ -4.741004, 36.485213 ], [ -4.741045, 36.485388 ], [ -4.741035, 36.485426 ], [ -4.740997, 36.485448 ], [ -4.74086, 36.485486 ], [ -4.740616, 36.485537 ], [ -4.740444, 36.485561 ], [ -4.740424, 36.485497 ], [ -4.740358, 36.485508 ], [ -4.740344, 36.485522 ], [ -4.74035, 36.485542 ], [ -4.74039, 36.485575 ], [ -4.740609, 36.485759 ], [ -4.740616, 36.485802 ], [ -4.740613, 36.485854 ], [ -4.740484, 36.485944 ], [ -4.740428, 36.485955 ], [ -4.740367, 36.485954 ], [ -4.740282, 36.485892 ], [ -4.740097, 36.485744 ], [ -4.739947, 36.485591 ], [ -4.739784, 36.485385 ], [ -4.739686, 36.485198 ], [ -4.739614, 36.485031 ], [ -4.739216, 36.48365 ], [ -4.739316, 36.483626 ], [ -4.739307, 36.483561 ], [ -4.739196, 36.483581 ], [ -4.73916, 36.483532 ], [ -4.739143, 36.483434 ], [ -4.739135, 36.483332 ], [ -4.739169, 36.483219 ], [ -4.739253, 36.483091 ], [ -4.739394, 36.482992 ], [ -4.739626, 36.4829 ], [ -4.740041, 36.482832 ], [ -4.740271, 36.482795 ], [ -4.740442, 36.482833 ], [ -4.740544, 36.482801 ], [ -4.740584, 36.482751 ], [ -4.740576, 36.482696 ], [ -4.740522, 36.482648 ], [ -4.739646, 36.48278 ], [ -4.739481, 36.482824 ], [ -4.739321, 36.482888 ], [ -4.739139, 36.48302 ], [ -4.739033, 36.483179 ], [ -4.738997, 36.483291 ], [ -4.739001, 36.483432 ], [ -4.739039, 36.483609 ], [ -4.739356, 36.484674 ], [ -4.739249, 36.484749 ], [ -4.739057, 36.484846 ], [ -4.738752, 36.48497 ], [ -4.738591, 36.485047 ], [ -4.738205, 36.485243 ], [ -4.737984, 36.485319 ], [ -4.737048, 36.485534 ], [ -4.736241, 36.485666 ], [ -4.73535, 36.485852 ], [ -4.734404, 36.485883 ], [ -4.734111, 36.485922 ], [ -4.733866, 36.485996 ], [ -4.733525, 36.486077 ], [ -4.733102, 36.48613 ], [ -4.732909, 36.486198 ], [ -4.732751, 36.486237 ], [ -4.732604, 36.486266 ], [ -4.732238, 36.486306 ], [ -4.731977, 36.486395 ], [ -4.731548, 36.486548 ], [ -4.731027, 36.486731 ], [ -4.73056, 36.486788 ], [ -4.73008, 36.486804 ], [ -4.72998, 36.486798 ], [ -4.729612, 36.486779 ], [ -4.728921, 36.48665 ], [ -4.728638, 36.48663 ], [ -4.728345, 36.486589 ], [ -4.728109, 36.486572 ], [ -4.727164, 36.486581 ], [ -4.726984, 36.486582 ], [ -4.726662, 36.486521 ], [ -4.726238, 36.486488 ], [ -4.725953, 36.486505 ], [ -4.725519, 36.486504 ], [ -4.725039, 36.486633 ], [ -4.724738, 36.486672 ], [ -4.724391, 36.486726 ], [ -4.724061, 36.48672 ], [ -4.723271, 36.486623 ], [ -4.722942, 36.486583 ], [ -4.722559, 36.486493 ], [ -4.722333, 36.486413 ], [ -4.722224, 36.48641 ], [ -4.721563, 36.486564 ], [ -4.721032, 36.486598 ], [ -4.720495, 36.486574 ], [ -4.71992, 36.486622 ], [ -4.71959, 36.486616 ], [ -4.719306, 36.486736 ], [ -4.71906, 36.486809 ], [ -4.718782, 36.48686 ], [ -4.71832, 36.487044 ], [ -4.717763, 36.487117 ], [ -4.71731, 36.48718 ], [ -4.716805, 36.487313 ], [ -4.716551, 36.487452 ], [ -4.716107, 36.487609 ], [ -4.715531, 36.487698 ], [ -4.71504, 36.487701 ], [ -4.714738, 36.487684 ], [ -4.714347, 36.487721 ], [ -4.713959, 36.48772 ], [ -4.713678, 36.487644 ], [ -4.713521, 36.487579 ], [ -4.713271, 36.487508 ], [ -4.713012, 36.487446 ], [ -4.712781, 36.487353 ], [ -4.7124, 36.487352 ], [ -4.712049, 36.487349 ], [ -4.711662, 36.487322 ], [ -4.711388, 36.487423 ], [ -4.711036, 36.487834 ], [ -4.710809, 36.488 ], [ -4.710473, 36.488143 ], [ -4.710207, 36.488172 ], [ -4.709790118919496, 36.488237875089716 ], [ -4.70966119337925, 36.486826311451075 ] ] ] } }
]
}
