{
"type": "FeatureCollection",
"name": "limite_municipal",
"crs": { "type": "name", "properties": { "name": "urn:ogc:def:crs:OGC:1.3:CRS84" } },
"features": [
{ "type": "Feature", "properties": { "codigo_ine": "29069", "municipio": "Marbella" }, "geometry": { "type": "MultiPolygon", "coordinates": [ [ [ [ -5.014667, 36.493129 ], [ -5.012676, 36.497556 ], [ -4.996369, 36.505968 ], [ -4.992631, 36.508847 ], [ -4.989408, 36.509589 ], [ -4.988614, 36.512141 ], [ -4.987138, 36.51582 ], [ -4.986819, 36.521398 ], [ -4.979223, 36.530442 ], [ -4.970601, 36.537071 ], [ -4.959326, 36.537476 ], [ -4.953239, 36.539622 ], [ -4.945656, 36.540453 ], [ -4.939474, 36.542741 ], [ -4.926772, 36.550033 ], [ -4.926817, 36.550102 ], [ -4.926877, 36.550231 ], [ -4.926869, 36.550337 ], [ -4.926802, 36.550401 ], [ -4.926679, 36.550496 ], [ -4.926579, 36.550546 ], [ -4.9265, 36.55059 ], [ -4.926426, 36.550623 ], [ -4.926243, 36.550616 ], [ -4.926142, 36.550615 ], [ -4.926034, 36.550693 ], [ -4.925936, 36.550762 ], [ -4.925709, 36.550837 ], [ -4.925591, 36.550873 ], [ -4.925432, 36.550941 ], [ -4.925291, 36.551001 ], [ -4.925167, 36.551233 ], [ -4.925124, 36.551454 ], [ -4.92497, 36.551602 ], [ -4.925025, 36.551763 ], [ -4.925044, 36.551852 ], [ -4.925071, 36.552181 ], [ -4.925052, 36.552346 ], [ -4.924919, 36.55246 ], [ -4.924867, 36.552747 ], [ -4.924758, 36.552944 ], [ -4.924629, 36.553099 ], [ -4.924385, 36.553233 ], [ -4.92416, 36.553365 ], [ -4.923954, 36.553479 ], [ -4.923728, 36.553559 ], [ -4.923539, 36.553605 ], [ -4.923346, 36.55365 ], [ -4.923144, 36.553726 ], [ -4.922961, 36.553866 ], [ -4.922801, 36.554056 ], [ -4.92272, 36.554292 ], [ -4.922722, 36.554567 ], [ -4.922713, 36.554724 ], [ -4.922592, 36.554858 ], [ -4.922411, 36.554939 ], [ -4.922143, 36.554971 ], [ -4.922092, 36.554885 ], [ -4.921911, 36.554627 ], [ -4.921714, 36.554308 ], [ -4.921502, 36.553882 ], [ -4.921263, 36.553608 ], [ -4.920912, 36.553341 ], [ -4.920501, 36.553109 ], [ -4.919551, 36.55248 ], [ -4.919091, 36.552307 ], [ -4.91868, 36.551975 ], [ -4.918323, 36.55164 ], [ -4.917916, 36.551238 ], [ -4.917823, 36.551167 ], [ -4.917407, 36.550847 ], [ -4.917147, 36.550639 ], [ -4.916518, 36.550209 ], [ -4.91599, 36.549776 ], [ -4.91572, 36.549694 ], [ -4.915417, 36.549668 ], [ -4.915151, 36.549564 ], [ -4.914876, 36.54936 ], [ -4.914622, 36.549142 ], [ -4.911822, 36.549995 ], [ -4.910114, 36.550515 ], [ -4.907073, 36.551327 ], [ -4.906703, 36.551426 ], [ -4.904416, 36.551963 ], [ -4.90368, 36.552099 ], [ -4.900712, 36.552483 ], [ -4.898949, 36.552476 ], [ -4.89837, 36.552409 ], [ -4.897174, 36.552019 ], [ -4.895908, 36.551518 ], [ -4.893912, 36.550727 ], [ -4.891235, 36.549569 ], [ -4.889454, 36.548957 ], [ -4.888402, 36.548596 ], [ -4.886049, 36.547808 ], [ -4.884791, 36.547333 ], [ -4.884457, 36.547184 ], [ -4.884427, 36.54717 ], [ -4.883673, 36.546645 ], [ -4.882653, 36.545932 ], [ -4.882111, 36.545477 ], [ -4.881453, 36.544831 ], [ -4.881311, 36.544657 ], [ -4.879855, 36.543278 ], [ -4.879631, 36.542789 ], [ -4.877505, 36.537803 ], [ -4.874787, 36.537465 ], [ -4.873432, 36.537297 ], [ -4.872079, 36.536307 ], [ -4.871644, 36.534371 ], [ -4.871325, 36.533465 ], [ -4.870116, 36.533738 ], [ -4.866082, 36.531413 ], [ -4.865778, 36.53191 ], [ -4.862371, 36.532085 ], [ -4.856414, 36.53162 ], [ -4.855516, 36.531227 ], [ -4.851778, 36.530074 ], [ -4.845032, 36.531077 ], [ -4.84448, 36.531141 ], [ -4.839458, 36.533127 ], [ -4.836202, 36.534406 ], [ -4.835187, 36.534844 ], [ -4.834774, 36.534994 ], [ -4.833885, 36.53524 ], [ -4.833276, 36.535404 ], [ -4.832826, 36.535525 ], [ -4.83171, 36.535814 ], [ -4.830113, 36.536373 ], [ -4.82772, 36.537168 ], [ -4.825272, 36.53798 ], [ -4.823166, 36.539366 ], [ -4.822519, 36.539476 ], [ -4.822203, 36.539538 ], [ -4.821337, 36.539697 ], [ -4.820446, 36.539996 ], [ -4.819726, 36.540239 ], [ -4.81911, 36.540425 ], [ -4.818482, 36.540321 ], [ -4.818157, 36.540282 ], [ -4.817879, 36.540268 ], [ -4.817476, 36.540263 ], [ -4.817154, 36.540246 ], [ -4.816696, 36.540227 ], [ -4.816506, 36.540269 ], [ -4.816336, 36.540342 ], [ -4.816196, 36.540514 ], [ -4.816073, 36.540672 ], [ -4.815881, 36.540807 ], [ -4.815592, 36.540881 ], [ -4.815323, 36.54095 ], [ -4.815007, 36.541011 ], [ -4.813823, 36.541044 ], [ -4.813139, 36.541053 ], [ -4.812892, 36.541062 ], [ -4.812698, 36.541099 ], [ -4.812374, 36.541174 ], [ -4.812129, 36.541271 ], [ -4.811809, 36.541301 ], [ -4.811668, 36.541319 ], [ -4.811074, 36.541324 ], [ -4.809728, 36.541535 ], [ -4.809462, 36.541603 ], [ -4.809281, 36.541749 ], [ -4.809169, 36.542323 ], [ -4.808917, 36.54288 ], [ -4.808439, 36.543863 ], [ -4.808313, 36.544069 ], [ -4.808107, 36.544341 ], [ -4.807671, 36.544943 ], [ -4.80669, 36.545657 ], [ -4.806287, 36.545973 ], [ -4.805518, 36.546088 ], [ -4.805381, 36.546166 ], [ -4.805224, 36.546209 ], [ -4.805088, 36.546244 ], [ -4.80495, 36.546233 ], [ -4.804633, 36.546189 ], [ -4.804385, 36.546312 ], [ -4.803971, 36.546441 ], [ -4.803862, 36.546474 ], [ -4.803674, 36.546509 ], [ -4.80332, 36.546543 ], [ -4.80318, 36.54651 ], [ -4.802811, 36.546338 ], [ -4.80199, 36.545823 ], [ -4.801887, 36.545741 ], [ -4.801584, 36.545488 ], [ -4.801426, 36.545387 ], [ -4.801223, 36.545313 ], [ -4.801059, 36.545233 ], [ -4.800885, 36.545122 ], [ -4.800624, 36.544962 ], [ -4.800334, 36.544801 ], [ -4.800041, 36.544623 ], [ -4.798831, 36.544672 ], [ -4.798153, 36.544619 ], [ -4.797798, 36.544563 ], [ -4.797371, 36.544496 ], [ -4.796762, 36.544433 ], [ -4.796611, 36.544273 ], [ -4.796458, 36.544031 ], [ -4.796345, 36.543815 ], [ -4.796184, 36.543664 ], [ -4.79595, 36.543509 ], [ -4.795809, 36.543395 ], [ -4.795638, 36.543263 ], [ -4.795581, 36.543211 ], [ -4.795567, 36.543129 ], [ -4.795564, 36.543001 ], [ -4.795636, 36.542822 ], [ -4.795636, 36.542704 ], [ -4.795576, 36.542586 ], [ -4.795496, 36.542494 ], [ -4.795205, 36.542277 ], [ -4.794909, 36.542223 ], [ -4.7946, 36.542123 ], [ -4.794398, 36.542127 ], [ -4.794229, 36.542194 ], [ -4.794008, 36.542316 ], [ -4.793721, 36.542426 ], [ -4.793427, 36.542563 ], [ -4.793086, 36.542753 ], [ -4.79288, 36.542861 ], [ -4.792793, 36.542899 ], [ -4.792532, 36.543005 ], [ -4.79227, 36.543025 ], [ -4.792046, 36.543032 ], [ -4.791849, 36.543085 ], [ -4.791688, 36.543106 ], [ -4.791422, 36.543074 ], [ -4.791157, 36.542997 ], [ -4.79102, 36.542946 ], [ -4.790848, 36.542823 ], [ -4.790694, 36.542691 ], [ -4.790552, 36.542557 ], [ -4.790403, 36.542419 ], [ -4.790285, 36.542316 ], [ -4.790196, 36.542228 ], [ -4.789969, 36.542025 ], [ -4.789633, 36.541821 ], [ -4.789241, 36.541641 ], [ -4.788842, 36.541489 ], [ -4.788464, 36.541383 ], [ -4.788036, 36.541275 ], [ -4.787916, 36.541196 ], [ -4.787762, 36.541049 ], [ -4.787676, 36.540884 ], [ -4.787562, 36.540704 ], [ -4.787519, 36.540644 ], [ -4.787375, 36.540523 ], [ -4.787177, 36.540424 ], [ -4.786884, 36.540363 ], [ -4.786545, 36.54036 ], [ -4.786242, 36.540307 ], [ -4.786131, 36.54027 ], [ -4.786008, 36.540253 ], [ -4.785853, 36.540248 ], [ -4.785757, 36.540265 ], [ -4.785533, 36.540288 ], [ -4.785376, 36.540275 ], [ -4.785292, 36.540255 ], [ -4.785226, 36.540197 ], [ -4.785159, 36.540051 ], [ -4.785094, 36.539874 ], [ -4.784985, 36.539833 ], [ -4.784859, 36.539823 ], [ -4.784719, 36.539916 ], [ -4.784592, 36.539963 ], [ -4.784471, 36.539959 ], [ -4.78432, 36.539913 ], [ -4.784182, 36.539836 ], [ -4.783961, 36.539753 ], [ -4.783507, 36.539584 ], [ -4.783215, 36.539478 ], [ -4.7829, 36.539363 ], [ -4.782545, 36.539269 ], [ -4.782326, 36.539226 ], [ -4.781976, 36.539189 ], [ -4.781215, 36.539064 ], [ -4.780554, 36.538967 ], [ -4.780147, 36.538913 ], [ -4.779788, 36.538856 ], [ -4.779509, 36.538862 ], [ -4.779316, 36.538914 ], [ -4.779122, 36.538929 ], [ -4.778953, 36.538929 ], [ -4.778812, 36.538894 ], [ -4.778532, 36.538803 ], [ -4.777988, 36.538598 ], [ -4.777531, 36.538398 ], [ -4.777078, 36.538193 ], [ -4.776843, 36.538063 ], [ -4.776401, 36.537935 ], [ -4.775802, 36.537809 ], [ -4.775191, 36.537747 ], [ -4.774889, 36.53767 ], [ -4.774707, 36.537632 ], [ -4.774589, 36.537564 ], [ -4.774406, 36.5374 ], [ -4.774229, 36.537326 ], [ -4.774076, 36.537347 ], [ -4.773911, 36.537362 ], [ -4.773731, 36.537315 ], [ -4.773619, 36.537252 ], [ -4.773485, 36.537137 ], [ -4.773379, 36.537027 ], [ -4.773311, 36.536865 ], [ -4.773213, 36.536726 ], [ -4.773117, 36.536644 ], [ -4.772976, 36.536555 ], [ -4.772729, 36.536559 ], [ -4.772572, 36.536521 ], [ -4.772399, 36.536389 ], [ -4.772187, 36.536306 ], [ -4.771953, 36.536158 ], [ -4.771747, 36.535995 ], [ -4.771715, 36.53592 ], [ -4.771749, 36.535765 ], [ -4.771717, 36.535615 ], [ -4.771464, 36.535427 ], [ -4.771359, 36.535357 ], [ -4.770892, 36.534973 ], [ -4.771552, 36.534532 ], [ -4.771063, 36.533977 ], [ -4.770666, 36.533669 ], [ -4.769821, 36.534297 ], [ -4.769398, 36.534087 ], [ -4.768982, 36.533917 ], [ -4.769575, 36.532905 ], [ -4.768591, 36.532291 ], [ -4.767425, 36.531754 ], [ -4.767134, 36.533 ], [ -4.766835, 36.532812 ], [ -4.766315, 36.53245 ], [ -4.76582, 36.532102 ], [ -4.765017, 36.531437 ], [ -4.764398, 36.531105 ], [ -4.764158, 36.53101 ], [ -4.763956, 36.530972 ], [ -4.763396, 36.531015 ], [ -4.762936, 36.531061 ], [ -4.76256, 36.531072 ], [ -4.762403, 36.531073 ], [ -4.762156, 36.531043 ], [ -4.761978, 36.53102 ], [ -4.761697, 36.530934 ], [ -4.761559, 36.530914 ], [ -4.761304, 36.530926 ], [ -4.760937, 36.530962 ], [ -4.760506, 36.530955 ], [ -4.7601, 36.530974 ], [ -4.75985, 36.531014 ], [ -4.759377, 36.531198 ], [ -4.759135, 36.53124 ], [ -4.758894, 36.531194 ], [ -4.758594, 36.530981 ], [ -4.758471, 36.530891 ], [ -4.758243, 36.530806 ], [ -4.757894, 36.530671 ], [ -4.757624, 36.530485 ], [ -4.757406, 36.530362 ], [ -4.757136, 36.530306 ], [ -4.756912, 36.530184 ], [ -4.756722, 36.53004 ], [ -4.756616, 36.529932 ], [ -4.756428, 36.529504 ], [ -4.756008, 36.529008 ], [ -4.75561, 36.529062 ], [ -4.755476, 36.529125 ], [ -4.755345, 36.529106 ], [ -4.754839, 36.528936 ], [ -4.754333, 36.528749 ], [ -4.753676, 36.528572 ], [ -4.753588, 36.52845 ], [ -4.753605, 36.52835 ], [ -4.753496, 36.528205 ], [ -4.753663, 36.527574 ], [ -4.751997, 36.526902 ], [ -4.748639, 36.526981 ], [ -4.748391, 36.526751 ], [ -4.748286, 36.526608 ], [ -4.748087, 36.526404 ], [ -4.747951, 36.526269 ], [ -4.747705, 36.52612 ], [ -4.747454, 36.525955 ], [ -4.747216, 36.525727 ], [ -4.74665, 36.525471 ], [ -4.745437, 36.524755 ], [ -4.744828, 36.524905 ], [ -4.744237, 36.525019 ], [ -4.743963, 36.525022 ], [ -4.743602, 36.524873 ], [ -4.743462, 36.524657 ], [ -4.74313, 36.524391 ], [ -4.742947, 36.523648 ], [ -4.74282, 36.523257 ], [ -4.742487, 36.523027 ], [ -4.7422, 36.522959 ], [ -4.741788, 36.522891 ], [ -4.741324, 36.522705 ], [ -4.741141, 36.52257 ], [ -4.74065, 36.522255 ], [ -4.740215, 36.521971 ], [ -4.740042, 36.521864 ], [ -4.73989, 36.521819 ], [ -4.739194, 36.521877 ], [ -4.739065, 36.521844 ], [ -4.738844, 36.521831 ], [ -4.738699, 36.521778 ], [ -4.738616, 36.521712 ], [ -4.738438, 36.521663 ], [ -4.738192, 36.521606 ], [ -4.737834, 36.521412 ], [ -4.737408, 36.521151 ], [ -4.737192, 36.521038 ], [ -4.736959, 36.521002 ], [ -4.736724, 36.521011 ], [ -4.736506, 36.521035 ], [ -4.73617, 36.521102 ], [ -4.735564, 36.521173 ], [ -4.735038, 36.520945 ], [ -4.734414, 36.52053 ], [ -4.734065, 36.520017 ], [ -4.733336, 36.519523 ], [ -4.733003, 36.519165 ], [ -4.732365, 36.518541 ], [ -4.73205, 36.517911 ], [ -4.731416, 36.516853 ], [ -4.731378, 36.516728 ], [ -4.730965, 36.516083 ], [ -4.730698, 36.515465 ], [ -4.731006, 36.513657 ], [ -4.731043, 36.512992 ], [ -4.731495, 36.512736 ], [ -4.732397, 36.512226 ], [ -4.732627, 36.511562 ], [ -4.733453, 36.510816 ], [ -4.733703, 36.510414 ], [ -4.733945, 36.510109 ], [ -4.734344, 36.509818 ], [ -4.734502, 36.509322 ], [ -4.734572, 36.508653 ], [ -4.734894, 36.50832 ], [ -4.735691, 36.508028 ], [ -4.736139, 36.507407 ], [ -4.736381, 36.506691 ], [ -4.736261, 36.506143 ], [ -4.735837, 36.505444 ], [ -4.73534, 36.504936 ], [ -4.734985, 36.504498 ], [ -4.734617, 36.503857 ], [ -4.734324, 36.502791 ], [ -4.734289, 36.502292 ], [ -4.734701, 36.501716 ], [ -4.735454, 36.500655 ], [ -4.736243, 36.499485 ], [ -4.73639, 36.499025 ], [ -4.736448, 36.498365 ], [ -4.736021, 36.497688 ], [ -4.735682, 36.49722 ], [ -4.736256, 36.495424 ], [ -4.736337, 36.49489 ], [ -4.736464, 36.494576 ], [ -4.736735, 36.494263 ], [ -4.736951, 36.493794 ], [ -4.737078, 36.493335 ], [ -4.732485, 36.487108 ], [ -4.731977, 36.486395 ], [ -4.732238, 36.486306 ], [ -4.732604, 36.486266 ], [ -4.732751, 36.486237 ], [ -4.732909, 36.486198 ], [ -4.733102, 36.48613 ], [ -4.733525, 36.486077 ], [ -4.733866, 36.485996 ], [ -4.734111, 36.485922 ], [ -4.734404, 36.485883 ], [ -4.73535, 36.485852 ], [ -4.736241, 36.485666 ], [ -4.737048, 36.485534 ], [ -4.737984, 36.485319 ], [ -4.738205, 36.485243 ], [ -4.738591, 36.485047 ], [ -4.738752, 36.48497 ], [ -4.739057, 36.484846 ], [ -4.739249, 36.484749 ], [ -4.739356, 36.484674 ], [ -4.739039, 36.483609 ], [ -4.739001, 36.483432 ], [ -4.738997, 36.483291 ], [ -4.739033, 36.483179 ], [ -4.739139, 36.48302 ], [ -4.739321, 36.482888 ], [ -4.739481, 36.482824 ], [ -4.739646, 36.48278 ], [ -4.740522, 36.482648 ], [ -4.740576, 36.482696 ], [ -4.740584, 36.482751 ], [ -4.740544, 36.482801 ], [ -4.740442, 36.482833 ], [ -4.740271, 36.482795 ], [ -4.740041, 36.482832 ], [ -4.739626, 36.4829 ], [ -4.739394, 36.482992 ], [ -4.739253, 36.483091 ], [ -4.739169, 36.483219 ], [ -4.739135, 36.483332 ], [ -4.739143, 36.483434 ], [ -4.73916, 36.483532 ], [ -4.739196, 36.483581 ], [ -4.739307, 36.483561 ], [ -4.739316, 36.483626 ], [ -4.739216, 36.48365 ], [ -4.739614, 36.485031 ], [ -4.739686, 36.485198 ], [ -4.739784, 36.485385 ], [ -4.739947, 36.485591 ], [ -4.740097, 36.485744 ], [ -4.740282, 36.485892 ], [ -4.740367, 36.485954 ], [ -4.740428, 36.485955 ], [ -4.740484, 36.485944 ], [ -4.740613, 36.485854 ], [ -4.740616, 36.485802 ], [ -4.740609, 36.485759 ], [ -4.74039, 36.485575 ], [ -4.74035, 36.485542 ], [ -4.740344, 36.485522 ], [ -4.740358, 36.485508 ], [ -4.740424, 36.485497 ], [ -4.740444, 36.485561 ], [ -4.740616, 36.485537 ], [ -4.74086, 36.485486 ], [ -4.740997, 36.485448 ], [ -4.741035, 36.485426 ], [ -4.741045, 36.485388 ], [ -4.741004, 36.485213 ], [ -4.740922, 36.485008 ], [ -4.740884, 36.48498 ], [ -4.740834, 36.484975 ], [ -4.740643, 36.485009 ], [ -4.740414, 36.485066 ], [ -4.740226, 36.485134 ], [ -4.740138, 36.485174 ], [ -4.740107, 36.485178 ], [ -4.740091, 36.485168 ], [ -4.739974, 36.484766 ], [ -4.739953, 36.48477 ], [ -4.739934, 36.484706 ], [ -4.740092, 36.484679 ], [ -4.739764, 36.483505 ], [ -4.739614, 36.483532 ], [ -4.73958, 36.483406 ], [ -4.739704, 36.483365 ], [ -4.739763, 36.483355 ], [ -4.739792, 36.483281 ], [ -4.739831, 36.483237 ], [ -4.73993, 36.483229 ], [ -4.740082, 36.483304 ], [ -4.740301, 36.483391 ], [ -4.740627, 36.483475 ], [ -4.740708, 36.48345 ], [ -4.740798, 36.48351 ], [ -4.740785, 36.48357 ], [ -4.740747, 36.483612 ], [ -4.740684, 36.483616 ], [ -4.740626, 36.48359 ], [ -4.740542, 36.483603 ], [ -4.740493, 36.483603 ], [ -4.740487, 36.483784 ], [ -4.740537, 36.483903 ], [ -4.740769, 36.484074 ], [ -4.740994, 36.484149 ], [ -4.741477, 36.484284 ], [ -4.741686, 36.48429 ], [ -4.742442, 36.484241 ], [ -4.742882, 36.484167 ], [ -4.743119, 36.48408 ], [ -4.743319, 36.483946 ], [ -4.743237, 36.482872 ], [ -4.743242, 36.482792 ], [ -4.743283, 36.482752 ], [ -4.743329, 36.482777 ], [ -4.743378, 36.483036 ], [ -4.743473, 36.48414 ], [ -4.743627, 36.484192 ], [ -4.74442, 36.484436 ], [ -4.744981, 36.484667 ], [ -4.745197, 36.484712 ], [ -4.745383, 36.48472 ], [ -4.745656, 36.484847 ], [ -4.74596, 36.484863 ], [ -4.746323, 36.484853 ], [ -4.74706, 36.484954 ], [ -4.747841, 36.484959 ], [ -4.748312, 36.484981 ], [ -4.748667, 36.484951 ], [ -4.74918, 36.484942 ], [ -4.74971, 36.484991 ], [ -4.750175, 36.485047 ], [ -4.750495, 36.48501 ], [ -4.750956, 36.485032 ], [ -4.751091, 36.485064 ], [ -4.751344, 36.485078 ], [ -4.752156, 36.485118 ], [ -4.752412, 36.485118 ], [ -4.752538, 36.485132 ], [ -4.752818, 36.485262 ], [ -4.753133, 36.485325 ], [ -4.753453, 36.485368 ], [ -4.753994, 36.485336 ], [ -4.754169, 36.48536 ], [ -4.754379, 36.485365 ], [ -4.754589, 36.485396 ], [ -4.75487, 36.485522 ], [ -4.755266, 36.485619 ], [ -4.755768, 36.485634 ], [ -4.756167, 36.485673 ], [ -4.756568, 36.485678 ], [ -4.756796, 36.485709 ], [ -4.757074, 36.485788 ], [ -4.757274, 36.485845 ], [ -4.757628, 36.485897 ], [ -4.75809, 36.486068 ], [ -4.758339, 36.486187 ], [ -4.758742, 36.486292 ], [ -4.759088, 36.486342 ], [ -4.759384, 36.486386 ], [ -4.759737, 36.486356 ], [ -4.760504, 36.486492 ], [ -4.760679, 36.486545 ], [ -4.760908, 36.486601 ], [ -4.76101, 36.486638 ], [ -4.76148, 36.48665 ], [ -4.76165, 36.486663 ], [ -4.762009, 36.486762 ], [ -4.762503, 36.486975 ], [ -4.763264, 36.487147 ], [ -4.764144, 36.487324 ], [ -4.764561, 36.487404 ], [ -4.764938, 36.487449 ], [ -4.765196, 36.487481 ], [ -4.766213, 36.487629 ], [ -4.766735, 36.487714 ], [ -4.767049, 36.487774 ], [ -4.767343, 36.487817 ], [ -4.768508, 36.488025 ], [ -4.769233, 36.488195 ], [ -4.769621, 36.488212 ], [ -4.770475, 36.4884 ], [ -4.77107, 36.488616 ], [ -4.771666, 36.488745 ], [ -4.771987, 36.4888 ], [ -4.773018, 36.488992 ], [ -4.773698, 36.489064 ], [ -4.774091, 36.489182 ], [ -4.774247, 36.489255 ], [ -4.775766, 36.489669 ], [ -4.776039, 36.489719 ], [ -4.776722, 36.489894 ], [ -4.77715, 36.49005 ], [ -4.777529, 36.49012 ], [ -4.778104, 36.490272 ], [ -4.778616, 36.490363 ], [ -4.77889, 36.490449 ], [ -4.779263, 36.49051 ], [ -4.780851, 36.49091 ], [ -4.781502, 36.491089 ], [ -4.781799, 36.491139 ], [ -4.782582, 36.491278 ], [ -4.783332, 36.491482 ], [ -4.783834, 36.491621 ], [ -4.785186, 36.49195 ], [ -4.785411, 36.492019 ], [ -4.786063, 36.492223 ], [ -4.787198, 36.492489 ], [ -4.788269, 36.492706 ], [ -4.789329, 36.492993 ], [ -4.790955, 36.493355 ], [ -4.791903, 36.493599 ], [ -4.792261, 36.493633 ], [ -4.792821, 36.493807 ], [ -4.793358, 36.493925 ], [ -4.793749, 36.493975 ], [ -4.794613, 36.494221 ], [ -4.79522, 36.494327 ], [ -4.797018, 36.494705 ], [ -4.797755, 36.494849 ], [ -4.798294, 36.495016 ], [ -4.798597, 36.495066 ], [ -4.799155, 36.495237 ], [ -4.799726, 36.495365 ], [ -4.800563, 36.495544 ], [ -4.801155, 36.495685 ], [ -4.802386, 36.495901 ], [ -4.802978, 36.496067 ], [ -4.803803, 36.496227 ], [ -4.804486, 36.496374 ], [ -4.805949, 36.496756 ], [ -4.807189, 36.497011 ], [ -4.807822, 36.49713 ], [ -4.808497, 36.497296 ], [ -4.809181, 36.497412 ], [ -4.809767, 36.497547 ], [ -4.81043, 36.497726 ], [ -4.810765, 36.497857 ], [ -4.810901, 36.497896 ], [ -4.811179, 36.497947 ], [ -4.811605, 36.498059 ], [ -4.812167, 36.498142 ], [ -4.81252, 36.498204 ], [ -4.813024, 36.498228 ], [ -4.813274, 36.498222 ], [ -4.814, 36.498474 ], [ -4.814634, 36.498587 ], [ -4.815196, 36.498727 ], [ -4.816033, 36.498853 ], [ -4.816431, 36.498937 ], [ -4.817198, 36.499045 ], [ -4.817637, 36.49905 ], [ -4.818126, 36.499111 ], [ -4.818696, 36.499192 ], [ -4.819573, 36.499213 ], [ -4.820094, 36.499263 ], [ -4.820814, 36.499244 ], [ -4.821121, 36.499366 ], [ -4.821388, 36.499484 ], [ -4.821703, 36.499496 ], [ -4.823283, 36.499856 ], [ -4.823568, 36.499924 ], [ -4.824036, 36.5 ], [ -4.824486, 36.500075 ], [ -4.824767, 36.500134 ], [ -4.825917, 36.500284 ], [ -4.826544, 36.500428 ], [ -4.827031, 36.50052 ], [ -4.827785, 36.50063 ], [ -4.828507, 36.500672 ], [ -4.829269, 36.50082 ], [ -4.830338, 36.500982 ], [ -4.830784, 36.501023 ], [ -4.831243, 36.501055 ], [ -4.833053, 36.501338 ], [ -4.833525, 36.501439 ], [ -4.833849, 36.501488 ], [ -4.834274, 36.501491 ], [ -4.835296, 36.501676 ], [ -4.835507, 36.501715 ], [ -4.836203, 36.501876 ], [ -4.836707, 36.501913 ], [ -4.837437, 36.502136 ], [ -4.838133, 36.50227 ], [ -4.838487, 36.502351 ], [ -4.839222, 36.502456 ], [ -4.839527, 36.502556 ], [ -4.8399, 36.502644 ], [ -4.840333, 36.502729 ], [ -4.841004, 36.50282 ], [ -4.841544, 36.502848 ], [ -4.842431, 36.502747 ], [ -4.842902, 36.502846 ], [ -4.843369, 36.503057 ], [ -4.843913, 36.503377 ], [ -4.844633, 36.503808 ], [ -4.844919, 36.503949 ], [ -4.845685, 36.504194 ], [ -4.846392, 36.504468 ], [ -4.847287, 36.504711 ], [ -4.847994, 36.504897 ], [ -4.849124, 36.505169 ], [ -4.849854, 36.505379 ], [ -4.850536, 36.505543 ], [ -4.851169, 36.505702 ], [ -4.851592, 36.505775 ], [ -4.852007, 36.50585 ], [ -4.852288, 36.505954 ], [ -4.852671, 36.506028 ], [ -4.853063, 36.506149 ], [ -4.853411, 36.506234 ], [ -4.854329, 36.506407 ], [ -4.855063, 36.506572 ], [ -4.856128, 36.506763 ], [ -4.856559, 36.506809 ], [ -4.858594, 36.507069 ], [ -4.860917, 36.507283 ], [ -4.863242, 36.507415 ], [ -4.865189, 36.507464 ], [ -4.866582, 36.507412 ], [ -4.86775, 36.507351 ], [ -4.869347, 36.507225 ], [ -4.870222, 36.507256 ], [ -4.870742, 36.507156 ], [ -4.871983, 36.507095 ], [ -4.872401, 36.50699 ], [ -4.872422, 36.506749 ], [ -4.872469, 36.50661 ], [ -4.872645, 36.506433 ], [ -4.873717, 36.505725 ], [ -4.873459, 36.505462 ], [ -4.8735, 36.505423 ], [ -4.873779, 36.505647 ], [ -4.87404, 36.505598 ], [ -4.876684, 36.505596 ], [ -4.877064, 36.505629 ], [ -4.877122, 36.505704 ], [ -4.877116, 36.505774 ], [ -4.877018, 36.505802 ], [ -4.87687, 36.505777 ], [ -4.876726, 36.505821 ], [ -4.876444, 36.505844 ], [ -4.876425, 36.506166 ], [ -4.876337, 36.50617 ], [ -4.876357, 36.505762 ], [ -4.874605, 36.505778 ], [ -4.874605, 36.505914 ], [ -4.874055, 36.50591 ], [ -4.872683, 36.506748 ], [ -4.872619, 36.507364 ], [ -4.873365, 36.507406 ], [ -4.873378, 36.507955 ], [ -4.874578, 36.507935 ], [ -4.874574, 36.506848 ], [ -4.874759, 36.506838 ], [ -4.874749, 36.507764 ], [ -4.875814, 36.507758 ], [ -4.875806, 36.506876 ], [ -4.875788, 36.506873 ], [ -4.875796, 36.506736 ], [ -4.875965, 36.506735 ], [ -4.87596, 36.506831 ], [ -4.876266, 36.507062 ], [ -4.876595, 36.507218 ], [ -4.876809, 36.507255 ], [ -4.877229, 36.506777 ], [ -4.877307, 36.506753 ], [ -4.877276, 36.506834 ], [ -4.877009, 36.507144 ], [ -4.877088, 36.50723 ], [ -4.877318, 36.507359 ], [ -4.87753, 36.507454 ], [ -4.877726, 36.507493 ], [ -4.878089, 36.507563 ], [ -4.878587, 36.50762 ], [ -4.878959, 36.507645 ], [ -4.879865, 36.507491 ], [ -4.880645, 36.507282 ], [ -4.880746, 36.50723 ], [ -4.880686, 36.506906 ], [ -4.88049, 36.506315 ], [ -4.880983, 36.505461 ], [ -4.88106, 36.505441 ], [ -4.881009, 36.505603 ], [ -4.880708, 36.506095 ], [ -4.880647, 36.506316 ], [ -4.880728, 36.506527 ], [ -4.880942, 36.506672 ], [ -4.881481, 36.506816 ], [ -4.88199, 36.506876 ], [ -4.882172, 36.506857 ], [ -4.882536, 36.506776 ], [ -4.882975, 36.506706 ], [ -4.88359, 36.506493 ], [ -4.884112, 36.506346 ], [ -4.88469, 36.506442 ], [ -4.886049, 36.506427 ], [ -4.886667, 36.506378 ], [ -4.887374, 36.5062 ], [ -4.887826, 36.505969 ], [ -4.888126, 36.505185 ], [ -4.887605, 36.504834 ], [ -4.887651, 36.504769 ], [ -4.888238, 36.505114 ], [ -4.891607, 36.504854 ], [ -4.89169, 36.504916 ], [ -4.89168, 36.50502 ], [ -4.891586, 36.505035 ], [ -4.891418, 36.505027 ], [ -4.89124, 36.505042 ], [ -4.891243, 36.50525 ], [ -4.891024, 36.505258 ], [ -4.891021, 36.505066 ], [ -4.890292, 36.505128 ], [ -4.890276, 36.505094 ], [ -4.888747, 36.50521 ], [ -4.888659, 36.505247 ], [ -4.88847, 36.505266 ], [ -4.888334, 36.505392 ], [ -4.888266, 36.505588 ], [ -4.888115, 36.506228 ], [ -4.888245, 36.506245 ], [ -4.888245, 36.506419 ], [ -4.889798, 36.506337 ], [ -4.889726, 36.50567 ], [ -4.890223, 36.505683 ], [ -4.890788, 36.506004 ], [ -4.890831, 36.506078 ], [ -4.89078, 36.506125 ], [ -4.890525, 36.506102 ], [ -4.890513, 36.506238 ], [ -4.89053, 36.506429 ], [ -4.890707, 36.506653 ], [ -4.890994, 36.506764 ], [ -4.891315, 36.506829 ], [ -4.891541, 36.506803 ], [ -4.891618, 36.506757 ], [ -4.891579, 36.506685 ], [ -4.891547, 36.506615 ], [ -4.891558, 36.506523 ], [ -4.89165, 36.506483 ], [ -4.891785, 36.506517 ], [ -4.891823, 36.506613 ], [ -4.891884, 36.506683 ], [ -4.892652, 36.506716 ], [ -4.893052, 36.506622 ], [ -4.893061, 36.50592 ], [ -4.893512, 36.505308 ], [ -4.893602, 36.505323 ], [ -4.893501, 36.505457 ], [ -4.893139, 36.505956 ], [ -4.893134, 36.506492 ], [ -4.893594, 36.506715 ], [ -4.894121, 36.506866 ], [ -4.894736, 36.506979 ], [ -4.896319, 36.506993 ], [ -4.897091, 36.506966 ], [ -4.89796, 36.50692 ], [ -4.898498, 36.506892 ], [ -4.899009, 36.506812 ], [ -4.899794, 36.506682 ], [ -4.900443, 36.506574 ], [ -4.900932, 36.506398 ], [ -4.901088, 36.50625 ], [ -4.901344, 36.506201 ], [ -4.903371, 36.506132 ], [ -4.904746, 36.506132 ], [ -4.905308, 36.506145 ], [ -4.905967, 36.506102 ], [ -4.906656, 36.506036 ], [ -4.907373, 36.505963 ], [ -4.908261, 36.505854 ], [ -4.909974, 36.505692 ], [ -4.910565, 36.505666 ], [ -4.911067, 36.505649 ], [ -4.912179, 36.505565 ], [ -4.913083, 36.505304 ], [ -4.913382, 36.505195 ], [ -4.913835, 36.505011 ], [ -4.914194, 36.504905 ], [ -4.914832, 36.504632 ], [ -4.915346, 36.504408 ], [ -4.915838, 36.504307 ], [ -4.916443, 36.504068 ], [ -4.916782, 36.503902 ], [ -4.917036, 36.503796 ], [ -4.917312, 36.503638 ], [ -4.917482, 36.503494 ], [ -4.917653, 36.503282 ], [ -4.917762, 36.503225 ], [ -4.917971, 36.503156 ], [ -4.918226, 36.503082 ], [ -4.918678, 36.502986 ], [ -4.91914, 36.502788 ], [ -4.919625, 36.502469 ], [ -4.919854, 36.502384 ], [ -4.920434, 36.502281 ], [ -4.921196, 36.502119 ], [ -4.921516, 36.502049 ], [ -4.921997, 36.501774 ], [ -4.922322, 36.501467 ], [ -4.922516, 36.501162 ], [ -4.922579, 36.500991 ], [ -4.922612, 36.500783 ], [ -4.92241, 36.500511 ], [ -4.921991, 36.500728 ], [ -4.921963, 36.500682 ], [ -4.922346, 36.50048 ], [ -4.922276, 36.500302 ], [ -4.922275, 36.500129 ], [ -4.922338, 36.500023 ], [ -4.922432, 36.500001 ], [ -4.922482, 36.500052 ], [ -4.922483, 36.500124 ], [ -4.922433, 36.500183 ], [ -4.922404, 36.500261 ], [ -4.922431, 36.500399 ], [ -4.922705, 36.500774 ], [ -4.92305, 36.500851 ], [ -4.923354, 36.500851 ], [ -4.923622, 36.500807 ], [ -4.923925, 36.500733 ], [ -4.924508, 36.500535 ], [ -4.92501, 36.5003 ], [ -4.925208, 36.500268 ], [ -4.925637, 36.500095 ], [ -4.92609, 36.499888 ], [ -4.926538, 36.499823 ], [ -4.927071, 36.499777 ], [ -4.92735, 36.499728 ], [ -4.927726, 36.499653 ], [ -4.928124, 36.499701 ], [ -4.928484, 36.499739 ], [ -4.929114, 36.499968 ], [ -4.929615, 36.500086 ], [ -4.930255, 36.500064 ], [ -4.931073, 36.500035 ], [ -4.931556, 36.500016 ], [ -4.93253, 36.500084 ], [ -4.932757, 36.500107 ], [ -4.933582, 36.500049 ], [ -4.93393, 36.499994 ], [ -4.934134, 36.499927 ], [ -4.934446, 36.499873 ], [ -4.934799, 36.499805 ], [ -4.935084, 36.499757 ], [ -4.935559, 36.49958 ], [ -4.936075, 36.499278 ], [ -4.936575, 36.498984 ], [ -4.936945, 36.498805 ], [ -4.937485, 36.498543 ], [ -4.938047, 36.498237 ], [ -4.938124, 36.498191 ], [ -4.939095, 36.497733 ], [ -4.940128, 36.497139 ], [ -4.941108, 36.49639 ], [ -4.941597, 36.495971 ], [ -4.942368, 36.495536 ], [ -4.943297, 36.494871 ], [ -4.943756, 36.494388 ], [ -4.944392, 36.493694 ], [ -4.945118, 36.49319 ], [ -4.945355, 36.492939 ], [ -4.945117, 36.492622 ], [ -4.945109, 36.492565 ], [ -4.945147, 36.492527 ], [ -4.945201, 36.492528 ], [ -4.945262, 36.492556 ], [ -4.945486, 36.492413 ], [ -4.946303, 36.491915 ], [ -4.947008, 36.491255 ], [ -4.947875, 36.490498 ], [ -4.94828, 36.490004 ], [ -4.948526, 36.48966 ], [ -4.948621, 36.489427 ], [ -4.94866, 36.4892 ], [ -4.948682, 36.488993 ], [ -4.948643, 36.488869 ], [ -4.94854, 36.488733 ], [ -4.948425, 36.488658 ], [ -4.948294, 36.488635 ], [ -4.948193, 36.488628 ], [ -4.948201, 36.488661 ], [ -4.948203, 36.488715 ], [ -4.948193, 36.488761 ], [ -4.948171, 36.488806 ], [ -4.94815, 36.488842 ], [ -4.948073, 36.48887 ], [ -4.948023, 36.488874 ], [ -4.947966, 36.488868 ], [ -4.947911, 36.488843 ], [ -4.947873, 36.48881 ], [ -4.947844, 36.488754 ], [ -4.947841, 36.488705 ], [ -4.947865, 36.488653 ], [ -4.947908, 36.488601 ], [ -4.94797, 36.488553 ], [ -4.952415, 36.483386 ], [ -4.952516, 36.483298 ], [ -4.952675, 36.483188 ], [ -4.952839, 36.483107 ], [ -4.952996, 36.483057 ], [ -4.953132, 36.483022 ], [ -4.953293, 36.482998 ], [ -4.954533, 36.482934 ], [ -4.95467, 36.482915 ], [ -4.954791, 36.482901 ], [ -4.954889, 36.482918 ], [ -4.954923, 36.482954 ], [ -4.954946, 36.482999 ], [ -4.954959, 36.483034 ], [ -4.954948, 36.483071 ], [ -4.954938, 36.483116 ], [ -4.954917, 36.483143 ], [ -4.954884, 36.483171 ], [ -4.95484, 36.48319 ], [ -4.954806, 36.483199 ], [ -4.954751, 36.483209 ], [ -4.954695, 36.48318 ], [ -4.954616, 36.483132 ], [ -4.954581, 36.483122 ], [ -4.9533, 36.483206 ], [ -4.953211, 36.483216 ], [ -4.953166, 36.483226 ], [ -4.9531, 36.483245 ], [ -4.953044, 36.483264 ], [ -4.952989, 36.483274 ], [ -4.952911, 36.483302 ], [ -4.952867, 36.483321 ], [ -4.952801, 36.483358 ], [ -4.952724, 36.483405 ], [ -4.952691, 36.483432 ], [ -4.952626, 36.483478 ], [ -4.952571, 36.483533 ], [ -4.951823, 36.484402 ], [ -4.951868, 36.484428 ], [ -4.951629, 36.484693 ], [ -4.951697, 36.484728 ], [ -4.951502, 36.484948 ], [ -4.951434, 36.484913 ], [ -4.950826, 36.485617 ], [ -4.95086, 36.485643 ], [ -4.949461, 36.487262 ], [ -4.949574, 36.487323 ], [ -4.949509, 36.487396 ], [ -4.949464, 36.487379 ], [ -4.949338, 36.487531 ], [ -4.94924, 36.48807 ], [ -4.949441, 36.488095 ], [ -4.949454, 36.488021 ], [ -4.949482, 36.488026 ], [ -4.94945, 36.488175 ], [ -4.949503, 36.488183 ], [ -4.949537, 36.488037 ], [ -4.949568, 36.488034 ], [ -4.949534, 36.488224 ], [ -4.949615, 36.488238 ], [ -4.949638, 36.488118 ], [ -4.94966, 36.48812 ], [ -4.949644, 36.488198 ], [ -4.950126, 36.488702 ], [ -4.950402, 36.488525 ], [ -4.949714, 36.487816 ], [ -4.949656, 36.487862 ], [ -4.949641, 36.487826 ], [ -4.949784, 36.487724 ], [ -4.949811, 36.487759 ], [ -4.949751, 36.487801 ], [ -4.950577, 36.488649 ], [ -4.950848, 36.488483 ], [ -4.949959, 36.487547 ], [ -4.949898, 36.48759 ], [ -4.949871, 36.487557 ], [ -4.950019, 36.487453 ], [ -4.950046, 36.487487 ], [ -4.949992, 36.487523 ], [ -4.950887, 36.48846 ], [ -4.951163, 36.488288 ], [ -4.95026, 36.487352 ], [ -4.950208, 36.487395 ], [ -4.95018, 36.487362 ], [ -4.950325, 36.487264 ], [ -4.950355, 36.487292 ], [ -4.950289, 36.487329 ], [ -4.951195, 36.488265 ], [ -4.951469, 36.488097 ], [ -4.950333, 36.486917 ], [ -4.950281, 36.486961 ], [ -4.950256, 36.486931 ], [ -4.9504, 36.486833 ], [ -4.950433, 36.486858 ], [ -4.950372, 36.4869 ], [ -4.951494, 36.48807 ], [ -4.951916, 36.487813 ], [ -4.950784, 36.486639 ], [ -4.950729, 36.486686 ], [ -4.950703, 36.486653 ], [ -4.950843, 36.486555 ], [ -4.950873, 36.486581 ], [ -4.950812, 36.486623 ], [ -4.951941, 36.487789 ], [ -4.952352, 36.487533 ], [ -4.951226, 36.486356 ], [ -4.951173, 36.486398 ], [ -4.951142, 36.486368 ], [ -4.951294, 36.486272 ], [ -4.951323, 36.486301 ], [ -4.951265, 36.486343 ], [ -4.952343, 36.487464 ], [ -4.952936, 36.487089 ], [ -4.95161, 36.485721 ], [ -4.951533, 36.485768 ], [ -4.951476, 36.485718 ], [ -4.95174, 36.485539 ], [ -4.951797, 36.485592 ], [ -4.95172, 36.485647 ], [ -4.952121, 36.486055 ], [ -4.952077, 36.486083 ], [ -4.952868, 36.486912 ], [ -4.953461, 36.486529 ], [ -4.952819, 36.485864 ], [ -4.952747, 36.485923 ], [ -4.952698, 36.485861 ], [ -4.952925, 36.485722 ], [ -4.952973, 36.485771 ], [ -4.952908, 36.485826 ], [ -4.953547, 36.486493 ], [ -4.95441, 36.485959 ], [ -4.953351, 36.484368 ], [ -4.952871, 36.484574 ], [ -4.952798, 36.484462 ], [ -4.952947, 36.484266 ], [ -4.953015, 36.484301 ], [ -4.953345, 36.484169 ], [ -4.95346, 36.484162 ], [ -4.953886, 36.484323 ], [ -4.954223, 36.484443 ], [ -4.954459, 36.484497 ], [ -4.954858, 36.484536 ], [ -4.955223, 36.484522 ], [ -4.955554, 36.48448 ], [ -4.955884, 36.484401 ], [ -4.95602, 36.484414 ], [ -4.956067, 36.484495 ], [ -4.956002, 36.484577 ], [ -4.955767, 36.484572 ], [ -4.955712, 36.484592 ], [ -4.955703, 36.484709 ], [ -4.955761, 36.484848 ], [ -4.955906, 36.484996 ], [ -4.956067, 36.485105 ], [ -4.956264, 36.485188 ], [ -4.956521, 36.485223 ], [ -4.956741, 36.485216 ], [ -4.956979, 36.485191 ], [ -4.957136, 36.485147 ], [ -4.957313, 36.485085 ], [ -4.957529, 36.484902 ], [ -4.957695, 36.484729 ], [ -4.957476, 36.484147 ], [ -4.957353, 36.484167 ], [ -4.957331, 36.484228 ], [ -4.957305, 36.484275 ], [ -4.957237, 36.484302 ], [ -4.957174, 36.484292 ], [ -4.957135, 36.484271 ], [ -4.957112, 36.484219 ], [ -4.95713, 36.484142 ], [ -4.95781, 36.483976 ], [ -4.957885, 36.483985 ], [ -4.957941, 36.484028 ], [ -4.957932, 36.484112 ], [ -4.957889, 36.48415 ], [ -4.957829, 36.484148 ], [ -4.957759, 36.484121 ], [ -4.957708, 36.484092 ], [ -4.957587, 36.484127 ], [ -4.957914, 36.485012 ], [ -4.958191, 36.485074 ], [ -4.958457, 36.485102 ], [ -4.958809, 36.48509 ], [ -4.959122, 36.485017 ], [ -4.959415, 36.484901 ], [ -4.959641, 36.484746 ], [ -4.959752, 36.484629 ], [ -4.95983, 36.484534 ], [ -4.959931, 36.484355 ], [ -4.959989, 36.484205 ], [ -4.959997, 36.484032 ], [ -4.95998, 36.48385 ], [ -4.959919, 36.483636 ], [ -4.959857, 36.483503 ], [ -4.959346, 36.483671 ], [ -4.95933, 36.483733 ], [ -4.959278, 36.483789 ], [ -4.959197, 36.483803 ], [ -4.959157, 36.483782 ], [ -4.959126, 36.483733 ], [ -4.959148, 36.483664 ], [ -4.959193, 36.483621 ], [ -4.959279, 36.483573 ], [ -4.960529, 36.483143 ], [ -4.96063, 36.483124 ], [ -4.960689, 36.483131 ], [ -4.960721, 36.483171 ], [ -4.960689, 36.48322 ], [ -4.960656, 36.483247 ], [ -4.960571, 36.483263 ], [ -4.96022, 36.483395 ], [ -4.960287, 36.48357 ], [ -4.960416, 36.483726 ], [ -4.960577, 36.483844 ], [ -4.960847, 36.483945 ], [ -4.961044, 36.48396 ], [ -4.96117, 36.48396 ], [ -4.961476, 36.483926 ], [ -4.961765, 36.483829 ], [ -4.962015, 36.48371 ], [ -4.962176, 36.483597 ], [ -4.962333, 36.483429 ], [ -4.962448, 36.483278 ], [ -4.962522, 36.483127 ], [ -4.962542, 36.482994 ], [ -4.962521, 36.482838 ], [ -4.962474, 36.48273 ], [ -4.962385, 36.482606 ], [ -4.962284, 36.482514 ], [ -4.961981, 36.482632 ], [ -4.961892, 36.48267 ], [ -4.961803, 36.482699 ], [ -4.96173, 36.482701 ], [ -4.961722, 36.482674 ], [ -4.961729, 36.482639 ], [ -4.961795, 36.482591 ], [ -4.962225, 36.482369 ], [ -4.962431, 36.482256 ], [ -4.962517, 36.482261 ], [ -4.963076, 36.482081 ], [ -4.963195, 36.482071 ], [ -4.963267, 36.482102 ], [ -4.963273, 36.482158 ], [ -4.962686, 36.482354 ], [ -4.962719, 36.482517 ], [ -4.962761, 36.482618 ], [ -4.962819, 36.482698 ], [ -4.962928, 36.482821 ], [ -4.963044, 36.482913 ], [ -4.963206, 36.482995 ], [ -4.963334, 36.483043 ], [ -4.963479, 36.483076 ], [ -4.963635, 36.483101 ], [ -4.963789, 36.483094 ], [ -4.963923, 36.483077 ], [ -4.964155, 36.482992 ], [ -4.964251, 36.482936 ], [ -4.964309, 36.48285 ], [ -4.964155, 36.482577 ], [ -4.964104, 36.482568 ], [ -4.964054, 36.482535 ], [ -4.964032, 36.482487 ], [ -4.964037, 36.482438 ], [ -4.964075, 36.482391 ], [ -4.964115, 36.482385 ], [ -4.964162, 36.482391 ], [ -4.964198, 36.482424 ], [ -4.96423, 36.482468 ], [ -4.964227, 36.482515 ], [ -4.964205, 36.482558 ], [ -4.964363, 36.482844 ], [ -4.964498, 36.482867 ], [ -4.964636, 36.48286 ], [ -4.964849, 36.482787 ], [ -4.965038, 36.482644 ], [ -4.965163, 36.482439 ], [ -4.965212, 36.482263 ], [ -4.965218, 36.482125 ], [ -4.965211, 36.482006 ], [ -4.965196, 36.481897 ], [ -4.965102, 36.481632 ], [ -4.964989, 36.481432 ], [ -4.96446, 36.481618 ], [ -4.964415, 36.481681 ], [ -4.964379, 36.481718 ], [ -4.964335, 36.481734 ], [ -4.964289, 36.481733 ], [ -4.964247, 36.481722 ], [ -4.964228, 36.481677 ], [ -4.96424, 36.481632 ], [ -4.964289, 36.481583 ], [ -4.965262, 36.481209 ], [ -4.965312, 36.48123 ], [ -4.965317, 36.48129 ], [ -4.96529, 36.481337 ], [ -4.965216, 36.481357 ], [ -4.965093, 36.481412 ], [ -4.965206, 36.481629 ], [ -4.965372, 36.481857 ], [ -4.965573, 36.481906 ], [ -4.965851, 36.481946 ], [ -4.966203, 36.48193 ], [ -4.966543, 36.481872 ], [ -4.966837, 36.481745 ], [ -4.967008, 36.481646 ], [ -4.967182, 36.481501 ], [ -4.96721, 36.481409 ], [ -4.967187, 36.481331 ], [ -4.967058, 36.481163 ], [ -4.967001, 36.481077 ], [ -4.966971, 36.48097 ], [ -4.966899, 36.480901 ], [ -4.966933, 36.480844 ], [ -4.96699, 36.480793 ], [ -4.967069, 36.480798 ], [ -4.967129, 36.480849 ], [ -4.967105, 36.480931 ], [ -4.967085, 36.480982 ], [ -4.967154, 36.481126 ], [ -4.96724, 36.481277 ], [ -4.967441, 36.481294 ], [ -4.96763, 36.481255 ], [ -4.967799, 36.481189 ], [ -4.968113, 36.481017 ], [ -4.968538, 36.480773 ], [ -4.968782, 36.48063 ], [ -4.968855, 36.480694 ], [ -4.969227, 36.480456 ], [ -4.969896, 36.479878 ], [ -4.970274, 36.479517 ], [ -4.970653, 36.479102 ], [ -4.970949, 36.478786 ], [ -4.971223, 36.478589 ], [ -4.971526, 36.478427 ], [ -4.971967, 36.478309 ], [ -4.972669, 36.478184 ], [ -4.97302, 36.478226 ], [ -4.97358, 36.478249 ], [ -4.974017, 36.478276 ], [ -4.97441, 36.478305 ], [ -4.974817, 36.478326 ], [ -4.97515, 36.478357 ], [ -4.975628, 36.478288 ], [ -4.976033, 36.478241 ], [ -4.976546, 36.478092 ], [ -4.977022, 36.477959 ], [ -4.977853, 36.477534 ], [ -4.978711, 36.477069 ], [ -4.979749, 36.476457 ], [ -4.980445, 36.476004 ], [ -4.981104, 36.475551 ], [ -4.981785, 36.475104 ], [ -4.982268, 36.474633 ], [ -4.982809, 36.474313 ], [ -4.983469, 36.473807 ], [ -4.984203, 36.473404 ], [ -4.985151, 36.47283 ], [ -4.986418, 36.472148 ], [ -4.987443, 36.471536 ], [ -4.988646, 36.470842 ], [ -4.989576, 36.470251 ], [ -4.990361, 36.469619 ], [ -4.990603, 36.469342 ], [ -4.990908, 36.469122 ], [ -4.991341, 36.468911 ], [ -4.991908, 36.46864 ], [ -4.992319, 36.468343 ], [ -4.992899, 36.467853 ], [ -4.993356, 36.467548 ], [ -4.993995, 36.467211 ], [ -4.994339, 36.467018 ], [ -4.994634, 36.46677 ], [ -4.995142, 36.466393 ], [ -4.99554, 36.466134 ], [ -4.99601, 36.465907 ], [ -4.997077, 36.465386 ], [ -4.997799, 36.465139 ], [ -4.998686, 36.464667 ], [ -4.999448, 36.464197 ], [ -4.999634, 36.463997 ], [ -4.999473, 36.463863 ], [ -4.999547, 36.463825 ], [ -4.999677, 36.463885 ], [ -4.999962, 36.463828 ], [ -5.000308, 36.463678 ], [ -5.000651, 36.463451 ], [ -5.000823, 36.463259 ], [ -5.000706, 36.463141 ], [ -5.000732, 36.4631 ], [ -5.000842, 36.463146 ], [ -5.001086, 36.463111 ], [ -5.001333, 36.463027 ], [ -5.001618, 36.462873 ], [ -5.001779, 36.462728 ], [ -5.001952, 36.462463 ], [ -5.00186, 36.46235 ], [ -5.0018, 36.462311 ], [ -5.001833, 36.462284 ], [ -5.001974, 36.46233 ], [ -5.002109, 36.462326 ], [ -5.00229, 36.462272 ], [ -5.002592, 36.462042 ], [ -5.002963, 36.461678 ], [ -5.003294, 36.461463 ], [ -5.003418, 36.461324 ], [ -5.003399, 36.46125 ], [ -5.003476, 36.461268 ], [ -5.003733, 36.461065 ], [ -5.003785, 36.460971 ], [ -5.003771, 36.4609 ], [ -5.003732, 36.460839 ], [ -5.003787, 36.460839 ], [ -5.003832, 36.460876 ], [ -5.003883, 36.460924 ], [ -5.004199, 36.460765 ], [ -5.004493, 36.460485 ], [ -5.00469, 36.460252 ], [ -5.004868, 36.460108 ], [ -5.005129, 36.459917 ], [ -5.005489, 36.459711 ], [ -5.005891, 36.459531 ], [ -5.005729, 36.45974 ], [ -5.004894, 36.460646 ], [ -5.004874, 36.460741 ], [ -5.004869, 36.460852 ], [ -5.004911, 36.460973 ], [ -5.004971, 36.461112 ], [ -5.005275, 36.461529 ], [ -5.005577, 36.462047 ], [ -5.008209, 36.46893 ], [ -5.008795, 36.472574 ], [ -5.009503, 36.478365 ], [ -5.009553, 36.478531 ], [ -5.009612, 36.478636 ], [ -5.009774, 36.478803 ], [ -5.010928, 36.479575 ], [ -5.011007, 36.479659 ], [ -5.010959, 36.479794 ], [ -5.010383, 36.4808 ], [ -5.01033, 36.481001 ], [ -5.010372, 36.481166 ], [ -5.011573, 36.483199 ], [ -5.013321, 36.485422 ], [ -5.013483, 36.485679 ], [ -5.013622, 36.486622 ], [ -5.013594, 36.487402 ], [ -5.013495, 36.487611 ], [ -5.013076, 36.488169 ], [ -5.012912, 36.488505 ], [ -5.01283, 36.488723 ], [ -5.012752, 36.489023 ], [ -5.012751, 36.489415 ], [ -5.012744, 36.489751 ], [ -5.012768, 36.490165 ], [ -5.01279, 36.490412 ], [ -5.012809, 36.490598 ], [ -5.012903, 36.490855 ], [ -5.013069, 36.491073 ], [ -5.013829, 36.492177 ], [ -5.014667, 36.493129 ] ] ] ] } }
]
}
